X,Y,施設名,施設名かな,所在地,地区名,TEL,FAX,詳細情報,URL,小分類,施設ID,コード,H27生徒数,H23生徒数
135.5189473,34.69630011,大阪市立滝川小学校,おおさかしりつたきがわしょうがっこう,北区天満1-24-15,北区,06-6351-1582,,,http://swa.city-osaka.ed.jp/swas/index.php?id=e511000,小学校,111,15101,215,184
135.5131059,34.69815797,大阪市立堀川小学校,おおさかしりつほりかわしょうがっこう,北区東天満2-10-7,北区,06-6358-3336,,,http://swa.city-osaka.ed.jp/swas/index.php?id=e511001,小学校,289,15102,600,531
135.5067533,34.69666089,大阪市立西天満小学校,おおさかしりつにしてんましょうがっこう,北区西天満3-12-21,北区,06-6364-2222,,,http://swa.city-osaka.ed.jp/swas/index.php?id=e511002,小学校,290,15103,189,163
135.5137251,34.70851897,大阪市立菅北小学校,おおさかしりつかんぼくしょうがっこう,北区菅栄町9-5,北区,06-6358-1851,,,http://swa.city-osaka.ed.jp/swas/index.php?id=e511007,小学校,291,15104,231,239
135.5153751,34.71343297,大阪市立豊崎東小学校,おおさかしりつとよさきひがししょうがっこう,北区長柄中2-3-30,北区,06-6351-4920,,,http://swa.city-osaka.ed.jp/swas/index.php?id=e511010,小学校,293,15105,261,305
135.5059583,34.71276689,大阪市立豊崎本庄小学校,おおさかしりつとよさきほんじょうしょうがっこう,北区本庄西2-1-16,北区,06-6371-0638,,,http://swa.city-osaka.ed.jp/swas/index.php?id=e511011,小学校,294,15106,389,453
135.4939469,34.71346397,大阪市立中津小学校,おおさかしりつなかつしょうがっこう,北区中津3-34-18,北区,06-6371-2047,,,http://swa.city-osaka.ed.jp/swas/index.php?id=e511012,小学校,295,15107,309,323
135.4827002,34.70368592,大阪市立大淀小学校,おおさかしりつおおよどしょうがっこう,北区大淀中4-10-33,北区,06-6451-3400,,,http://swa.city-osaka.ed.jp/swas/index.php?id=e511013,小学校,296,15108,384,358
135.5139333,34.716744,大阪市立豊仁小学校,おおさかしりつほうじんしょうがっこう,北区長柄西2-6-20,北区,06-6351-0500,,,http://swa.city-osaka.ed.jp/swas/index.php?id=e511015,小学校,298,15109,296,274
135.5003643,34.71238108,大阪市立豊崎小学校,おおさかしりつとよさきしょうがっこう,北区豊崎4-5-9,北区,06-6371-0006,,,http://swa.city-osaka.ed.jp/swas/index.php?id=e511016,小学校,299,15110,156,152
135.5067782,34.70477817,大阪市立扇町小学校,おおさかしりつおうぎまちしょうがっこう,北区扇町2-7-24,北区,06-6363-0192,,,http://swa.city-osaka.ed.jp/swas/index.php?id=e511017,小学校,874,15111,379,315
135.5273561,34.69659997,大阪市立桜宮小学校,おおさかしりつさくらのみやしょうがっこう,都島区東野田町1-10-19,都島区,06-6351-1577,,,http://swa.city-osaka.ed.jp/swas/index.php?id=e521030,小学校,3018,15201,368,343
135.5241923,34.70298914,大阪市立中野小学校,おおさかしりつなかのしょうがっこう,都島区中野町3-10-5,都島区,06-6352-3258,,,http://swa.city-osaka.ed.jp/swas/index.php?id=e521031,小学校,2976,15202,444,385
135.5335613,34.71821414,大阪市立高倉小学校,おおさかしりつたかくらしょうがっこう,都島区高倉町3-3-10,都島区,06-6922-3301,,,http://swa.city-osaka.ed.jp/swas/index.php?id=e521032,小学校,2964,15203,817,870
135.5215223,34.72165603,大阪市立淀川小学校,おおさかしりつよどがわしょうがっこう,都島区毛馬町3-5-39,都島区,06-6921-0001,,,http://swa.city-osaka.ed.jp/swas/index.php?id=e521033,小学校,3039,15204,371,476
135.5282192,34.70726689,大阪市立都島小学校,おおさかしりつみやこじましょうがっこう,都島区都島本通3-10-3,都島区,06-6921-1434,,,http://swa.city-osaka.ed.jp/swas/index.php?id=e521034,小学校,3003,15205,408,633
135.5373558,34.71346103,大阪市立内代小学校,おおさかしりつうちんだいしょうがっこう,都島区内代町3-4-6,都島区,06-6954-1500,,,http://swa.city-osaka.ed.jp/swas/index.php?id=e521035,小学校,3028,15206,191,231
135.5341919,34.70809989,大阪市立東都島小学校,おおさかしりつひがしみやこじましょうがっこう,都島区都島本通4-24-20,都島区,06-6921-2955,,,http://swa.city-osaka.ed.jp/swas/index.php?id=e521036,小学校,3011,15207,338,373
135.5252999,34.72312792,大阪市立大東小学校,おおさかしりつだいとうしょうがっこう,都島区毛馬町2-11-111,都島区,06-6925-7861,,,http://swa.city-osaka.ed.jp/swas/index.php?id=e521037,小学校,3032,15208,299,372
135.5261138,34.7195,大阪市立友渕小学校,おおさかしりつともぶちしょうがっこう,都島区友渕町1-3-123,都島区,06-6921-3700,,,http://swa.city-osaka.ed.jp/swas/index.php?id=e521038,小学校,3050,15209,628,421
135.5223779,34.71690311,大阪市立友渕小学校分校,おおさかしりつともぶちしょうがっこうぶんこう,都島区友渕町1-3-187,都島区,06-6921-2011,,,http://swa.city-osaka.ed.jp/swas/index.php?id=e521038,小学校,3029,15210,781,405
135.4832722,34.69365594,大阪市立福島小学校,おおさかしりつふくしましょうがっこう,福島区福島4-5-6,福島区,06-6441-6003,,,http://swa.city-osaka.ed.jp/swas/index.php?id=e531060,小学校,3563,15301,281,219
135.4810078,34.69223303,大阪市立玉川小学校,おおさかしりつたまがわしょうがっこう,福島区玉川2-13-16,福島区,06-6441-6060,,,http://swa.city-osaka.ed.jp/swas/index.php?id=e531061,小学校,3542,15302,414,357
135.4736331,34.68582197,大阪市立野田小学校,おおさかしりつのだしょうがっこう,福島区野田5-13-22,福島区,06-6461-0520,,,http://swa.city-osaka.ed.jp/swas/index.php?id=e531062,小学校,3573,15303,647,498
135.4729668,34.69004189,大阪市立吉野小学校,おおさかしりつよしのしょうがっこう,福島区吉野3-10-5,福島区,06-6462-0051,,,http://swa.city-osaka.ed.jp/swas/index.php?id=e531063,小学校,3520,15304,372,431
135.4706329,34.69262781,大阪市立大開小学校,おおさかしりつおおひらきしょうがっこう,福島区大開2-10-28,福島区,06-6461-0460,,,http://swa.city-osaka.ed.jp/swas/index.php?id=e531064,小学校,3554,15305,325,337
135.4791058,34.69890614,大阪市立鷺洲小学校,おおさかしりつさぎすしょうがっこう,福島区鷺洲5-6-8,福島区,06-6452-0501,,,http://swa.city-osaka.ed.jp/swas/index.php?id=e531065,小学校,3549,15306,504,484
135.475217,34.69893311,大阪市立海老江東小学校,おおさかしりつえびえひがししょうがっこう,福島区海老江1-6-19,福島区,06-6452-0565,,,http://swa.city-osaka.ed.jp/swas/index.php?id=e531066,小学校,3499,15307,302,289
135.4697166,34.69757194,大阪市立海老江西小学校,おおさかしりつえびえにししょうがっこう,福島区海老江8-1-10,福島区,06-6451-3300,,,http://swa.city-osaka.ed.jp/swas/index.php?id=e531067,小学校,3513,15308,132,142
135.4852173,34.69718308,大阪市立上福島小学校,おおさかしりつかみふくしましょうがっこう,福島区福島7-4-33,福島区,06-6458-2500,,,http://swa.city-osaka.ed.jp/swas/index.php?id=e531068,小学校,3567,15309,140,116
135.4646441,34.68259392,大阪市立西九条小学校,おおさかしりつにしくじょうしょうがっこう,此花区西九条4-3-41,此花区,6468-3731,,,http://swa.city-osaka.ed.jp/swas/index.php?id=e541090,小学校,1272,15401,318,248
135.4542692,34.68512208,大阪市立四貫島小学校,おおさかしりつしかんじましょうがっこう,此花区四貫島2-16-29,此花区,6468-5451,,,http://swa.city-osaka.ed.jp/swas/index.php?id=e541091,小学校,936,15402,154,121
135.4392894,34.67782806,大阪市立島屋小学校,おおさかしりつしまやしょうがっこう,此花区島屋2-9-36,此花区,6468-5991,,,http://swa.city-osaka.ed.jp/swas/index.php?id=e541092,小学校,1300,15403,877,669
135.4514112,34.68998614,大阪市立伝法小学校,おおさかしりつでんぽうしょうがっこう,此花区伝法3-13-10,此花区,6461-0016,,,http://swa.city-osaka.ed.jp/swas/index.php?id=e541093,小学校,1288,15404,373,548
135.4552643,34.68237194,大阪市立梅香小学校,おおさかしりつばいかしょうがっこう,此花区梅香3-17-29,此花区,6461-4700,,,http://swa.city-osaka.ed.jp/swas/index.php?id=e541094,小学校,1319,15405,201,199
135.4603248,34.69055303,大阪市立高見小学校,おおさかしりつたかみしょうがっこう,此花区高見1-3-35,此花区,6468-5721,,,http://swa.city-osaka.ed.jp/swas/index.php?id=e541095,小学校,1135,15406,509,612
135.4416892,34.68559706,大阪市立酉島小学校,おおさかしりつとりしましょうがっこう,此花区酉島2-5-12,此花区,6468-6171,,,http://swa.city-osaka.ed.jp/swas/index.php?id=e541096,小学校,1313,15407,316,374
135.4523282,34.68015617,大阪市立春日出小学校,おおさかしりつかすがでしょうがっこう,此花区春日出中1-13-23,此花区,6461-2606,,,http://swa.city-osaka.ed.jp/swas/index.php?id=e541097,小学校,941,15408,295,295
135.5296421,34.67864697,大阪市立玉造小学校,おおさかしりつたまつくりしょうがっこう,中央区玉造2丁目3番43号,中央区,06-6941-1012,,,http://swa.city-osaka.ed.jp/swas/index.php?id=e551120,小学校,1197,15501,412,365
135.5148078,34.68030319,大阪市立南大江小学校,おおさかしりつみなみおおえしょうがっこう,中央区農人橋1丁目3番3号,中央区,06-6942-0501,,,http://swa.city-osaka.ed.jp/swas/index.php?id=e551121,小学校,411,15502,483,388
135.5121284,34.68526392,大阪市立中大江小学校,おおさかしりつなかおおえしょうがっこう,中央区糸屋町2丁目3番14号,中央区,06-6942-0221,,,http://swa.city-osaka.ed.jp/swas/index.php?id=e551122,小学校,484,15503,352,253
135.5105747,34.66580786,大阪市立高津小学校,おおさかしりつこうづしょうがっこう,中央区高津3丁目4番21号,中央区,06-6643-2701,,,http://swa.city-osaka.ed.jp/swas/index.php?id=e551129,小学校,527,15504,139,138
135.5041668,34.67323886,大阪市立南小学校,おおさかしりつみなみしょうがっこう,中央区東心斎橋1丁目14番29号,中央区,06-6252-6825,,,http://swa.city-osaka.ed.jp/swas/index.php?id=e551131,小学校,528,15505,193,187
135.5083918,34.69043892,大阪市立開平小学校,おおさかしりつかいへいしょうがっこう,中央区今橋1丁目5番7号,中央区,06-6203-4212,,,http://swa.city-osaka.ed.jp/swas/index.php?id=e551132,小学校,529,15506,151,101
135.5127253,34.67108086,大阪市立中央小学校,おおさかしりつちゅうおうしょうがっこう,中央区瓦屋町2丁目8番4号,中央区,06-6761-6121,,,http://swa.city-osaka.ed.jp/swas/index.php?id=e551133,小学校,445,15507,773,757
135.4936363,34.68825808,大阪市立西船場小学校,おおさかしりつにしせんばしょうがっこう,西区江戸堀1-21-28,西区,06-6441-1647,,,http://swa.city-osaka.ed.jp/swas/index.php?id=e561150,小学校,4805,15601,429,286
135.4840079,34.67091389,大阪市立日吉小学校,おおさかしりつひよししょうがっこう,西区南堀江4-9-19,西区,06-6531-0144,,,http://swa.city-osaka.ed.jp/swas/index.php?id=e561151,小学校,4807,15602,745,683
135.472578,34.67296108,大阪市立九条南小学校,おおさかしりつくじょうみなみしょうがっこう,西区九条南2-13-17,西区,06-6582-0930,,,http://swa.city-osaka.ed.jp/swas/index.php?id=e561152,小学校,4803,15603,239,259
135.4723058,34.67541714,大阪市立九条東小学校,おおさかしりつくじょうひがししょうがっこう,西区九条2-6-2,西区,06-6582-1910,,,http://swa.city-osaka.ed.jp/swas/index.php?id=e561153,小学校,4802,15604,182,230
135.4679919,34.67721897,大阪市立九条北小学校,おおさかしりつくじょうきたしょうがっこう,西区九条南4-7-38,西区,06-6581-0761,,,http://swa.city-osaka.ed.jp/swas/index.php?id=e561154,小学校,4804,15605,265,303
135.4818028,34.68174406,大阪市立本田小学校,おおさかしりつほんでんしょうがっこう,西区川口1-5-19,西区,06-6581-1531,,,http://swa.city-osaka.ed.jp/swas/index.php?id=e561155,小学校,4806,15606,546,548
135.4903033,34.67476703,大阪市立堀江小学校,おおさかしりつほりえしょうがっこう,西区北堀江3-2-16,西区,06-6531-4821,,,http://swa.city-osaka.ed.jp/swas/index.php?id=e561156,小学校,3392,15607,882,706
135.4916562,34.68054217,大阪市立明治小学校,おおさかしりつめいじしょうがっこう,西区阿波座2-3-35,西区,06-6531-0695,,,http://swa.city-osaka.ed.jp/swas/index.php?id=e561157,小学校,4801,15608,299,280
135.487733,34.68067217,大阪市立明治小学校分校,めいじしょうがっこうぶんこう,西区立売堀４丁目１０番１８号,西区,06-6531-3300,,,http://swa.city-osaka.ed.jp/swas/index.php?id=e561157,小学校,19433,15609,26,26
135.4642749,34.66345311,大阪市立市岡小学校,おおさかしりついちおかしょうがっこう,港区市岡3-2-24,港区,06-6571-0550,,,http://swa.city-osaka.ed.jp/swas/index.php?id=e571180,小学校,1995,15701,540,463
135.457047,34.66514992,大阪市立磯路小学校,おおさかしりついそじしょうがっこう,港区磯路3-7-7,港区,06-6571-0355,,,http://swa.city-osaka.ed.jp/swas/index.php?id=e571181,小学校,1963,15702,243,262
135.4528813,34.65932494,大阪市立三先小学校,おおさかしりつみさきしょうがっこう,港区三先2-6-32,港区,06-6571-0019,,,http://swa.city-osaka.ed.jp/swas/index.php?id=e571182,小学校,1979,15703,408,439
135.4475777,34.66351703,大阪市立田中小学校,おおさかしりつたなかしょうがっこう,港区田中2-10-34,港区,06-6573-0031,,,http://swa.city-osaka.ed.jp/swas/index.php?id=e571183,小学校,2047,15704,344,438
135.4462167,34.65512783,大阪市立八幡屋小学校,おおさかしりつやはたやしょうがっこう,港区八幡屋3-3-5,港区,06-6571-0013,,,http://swa.city-osaka.ed.jp/swas/index.php?id=e571184,小学校,1002,15705,212,248
135.4625582,34.671953,大阪市立波除小学校,おおさかしりつなみよけしょうがっこう,港区波除3-6-8,港区,06-6583-4000,,,http://swa.city-osaka.ed.jp/swas/index.php?id=e571185,小学校,980,15706,586,522
135.4363061,34.65304989,大阪市立築港小学校,おおさかしりつちっこうしょうがっこう,港区築港1-10-38,港区,06-6573-2445,,,http://swa.city-osaka.ed.jp/swas/index.php?id=e571186,小学校,2023,15707,200,226
135.468578,34.66571403,大阪市立南市岡小学校,おおさかしりつみなみいちおかしょうがっこう,港区南市岡2-6-35,港区,06-6582-0390,,,http://swa.city-osaka.ed.jp/swas/index.php?id=e571187,小学校,2065,15708,159,110
135.4440581,34.65635817,大阪市立港晴小学校,おおさかしりつこうせいしょうがっこう,港区港晴1-3-12,港区,06-6574-6636,,,http://swa.city-osaka.ed.jp/swas/index.php?id=e571188,小学校,1968,15709,200,216
135.4555581,34.668669,大阪市立弁天小学校,おおさかしりつべんてんしょうがっこう,港区弁天2-9-35,港区,06-6573-5812,,,http://swa.city-osaka.ed.jp/swas/index.php?id=e571189,小学校,1073,15710,514,525
135.4511498,34.65551097,大阪市立池島小学校,おおさかしりついけじましょうがっこう,港区池島2-5-47,港区,06-6571-4354,,,http://swa.city-osaka.ed.jp/swas/index.php?id=e571190,小学校,2016,15711,226,305
135.477022,34.66498883,大阪市立三軒家西小学校,おおさかしりつさんげんやにししょうがっこう,大正区三軒家西1-20-26,大正区,06-6551-0022・5600,,,http://www.ocec.ne.jp/es/sangen-yanisi-es/index.htm,小学校,3802,15801,110,136
135.4744887,34.653797,大阪市立泉尾東小学校,おおさかしりついずおひがししょうがっこう,大正区千島1-16-16,大正区,06-6551-0081・5186,,,http://swa.city-osaka.ed.jp/swas/index.php?id=e581211,小学校,3848,15802,460,463
135.4694,34.65933306,大阪市立中泉尾小学校,おおさかしりつなかいずおしょうがっこう,大正区泉尾3-23-34,大正区,06-6551-0068・3394,,,http://swa.city-osaka.ed.jp/swas/index.php?id=e581212,小学校,3886,15803,324,371
135.468161,34.65454406,大阪市立北恩加島小学校,おおさかしりつきたおかじましょうがっこう,大正区泉尾5-17-31,大正区,06-6551-0020・0240,,,http://swa.city-osaka.ed.jp/swas/index.php?id=e581213,小学校,3899,15804,294,305
135.4692188,34.63661114,大阪市立南恩加島小学校,おおさかしりつみなみおかじましょうがっこう,大正区南恩加島3-6-11,大正区,06-6551-0047・9503,,,http://swa.city-osaka.ed.jp/swas/index.php?id=e581214,小学校,3931,15805,293,377
135.4560533,34.63955606,大阪市立鶴町小学校,おおさかしりつつるまちしょうがっこう,大正区鶴町2-6-24,大正区,06-6551-0023・8800,,http://swa.city-osaka.ed.jp/swas/index.php?id=e581220,http://swa.city-osaka.ed.jp/swas/index.php?id=e581215,小学校,3916,15806,327,241
135.4706168,34.66046692,大阪市立泉尾北小学校,おおさかしりついずおきたしょうがっこう,大正区泉尾2-21-28,大正区,06-6551-0028・8100,,,http://swa.city-osaka.ed.jp/swas/index.php?id=e581216,小学校,3878,15807,304,346
135.4739423,34.64068317,大阪市立平尾小学校,おおさかしりつひらおしょうがっこう,大正区平尾2-21-28,大正区,06-6551-8600・3294,,,http://swa.city-osaka.ed.jp/swas/index.php?id=e581217,小学校,3941,15808,278,307
135.4794582,34.66057183,大阪市立三軒家東小学校,おおさかしりつさんげんやひがししょうがっこう,大正区三軒家東2-12-63,大正区,06-6551-4508・8000,,,http://swa.city-osaka.ed.jp/swas/index.php?id=e581218,小学校,3815,15809,419,418
135.4739693,34.64654417,大阪市立小林小学校,おおさかしりつこばやししょうがっこう,大正区小林東2-4-45,大正区,06-6553-0010・0055,,,http://swa.city-osaka.ed.jp/swas/index.php?id=e581219,小学校,3833,15810,244,283
,,大阪市立鶴浜小学校,,,大正区,,,,,小学校,,15811,0,166
135.5275798,34.67177792,大阪市立真田山小学校,おおさかしりつさなだやましょうがっこう,天王寺区玉造本町14-41,天王寺区,06-6761-0902,,,http://swa.city-osaka.ed.jp/swas/index.php?id=e591240,小学校,4255,15901,800,753
135.5281862,34.66731694,大阪市立味原小学校,おおさかしりつあじはらしょうがっこう,天王寺区味原町8-19,天王寺区,06-6768-2288,,,http://swa.city-osaka.ed.jp/swas/index.php?id=e591241,小学校,4346,15902,170,146
135.5280467,34.66140606,大阪市立桃陽小学校,おおさかしりつとうようしょうがっこう,天王寺区堂ヶ芝1-2-23,天王寺区,06-6772-2925,,,http://swa.city-osaka.ed.jp/swas/index.php?id=e591242,小学校,4330,15903,457,408
135.519464,34.65915314,大阪市立五条小学校,おおさかしりつごじょうしょうがっこう,天王寺区小宮町9-28,天王寺区,06-6772-4831,,,http://swa.city-osaka.ed.jp/swas/index.php?id=e591243,小学校,4268,15904,709,670
135.5219609,34.65178108,大阪市立聖和小学校,おおさかしりつせいわしょうがっこう,天王寺区寺田町1-6-37,天王寺区,06-6779-5521,,,http://swa.city-osaka.ed.jp/swas/index.php?id=e591244,小学校,4264,15905,364,388
135.5145861,34.65632789,大阪市立大江小学校,おおさかしりつおおえしょうがっこう,天王寺区四天王寺1-9-18,天王寺区,06-6771-2425,,,http://swa.city-osaka.ed.jp/swas/index.php?id=e591245,小学校,4260,15906,361,364
135.5171079,34.66323883,大阪市立生魂小学校,おおさかしりついくたましょうがっこう,天王寺区上汐4-1-25,天王寺区,06-6771-8474,,,http://swa.city-osaka.ed.jp/swas/index.php?id=e591246,小学校,4274,15907,194,173
135.5153279,34.65282489,大阪市立天王寺小学校,おおさかしりつてんのうじしょうがっこう,天王寺区大道1-4-49,天王寺区,06-6771-0870,,,http://swa.city-osaka.ed.jp/swas/index.php?id=e591247,小学校,4312,15908,259,266
,,大阪市立立葉小学校,,,浪速区,,,,,小学校,,16100,0,79
135.490694,34.65823525,大阪市立栄小学校,おおさかしりつさかえしょうがっこう,浪速区浪速東１－１－６１,浪速区,06-6568-5855,,,http://swa.city-osaka.ed.jp/swas/index.php?id=e611301,小学校,2668,16101,157,130
135.497133,34.66517208,大阪市立難波元町小学校,おおさかしりつなんばもとまちしょうがっこう,浪速区元町1-5-30,浪速区,06-6632-5668,,,http://swa.city-osaka.ed.jp/swas/index.php?id=e611302,小学校,2611,16102,144,141
135.4965111,34.653494,大阪市立大国小学校,おおさかしりつだいこくしょうがっこう,浪速区大国1-9-3,浪速区,06-6631-0171,,,http://swa.city-osaka.ed.jp/swas/index.php?id=e611303,小学校,2624,16103,152,135
135.5027473,34.65296086,大阪市立恵美小学校,おおさかしりつえみしょうがっこう,浪速区恵美須西2-13-9,浪速区,06-6643-1212,,,http://swa.city-osaka.ed.jp/swas/index.php?id=e611304,小学校,2606,16104,101,126
135.5082692,34.65814711,大阪市立日東小学校,おおさかしりつにっとうしょうがっこう,浪速区日本橋東3-1-23,浪速区,06-6632-7046,,,http://swa.city-osaka.ed.jp/swas/index.php?id=e611305,小学校,2646,16105,268,217
135.5067971,34.66220294,大阪市立日本橋小学校,おおさかしりつにっぽんばししょうがっこう,浪速区日本橋3-2-27,浪速区,06-6641-0544,,,http://swa.city-osaka.ed.jp/swas/index.php?id=e611306,小学校,2634,16106,38,49
135.4988079,34.65598317,大阪市立敷津小学校,おおさかしりつしきつしょうがっこう,浪速区敷津東3-9-32,浪速区,06-6641-0101,,,http://swa.city-osaka.ed.jp/swas/index.php?id=e611307,小学校,2661,16107,272,90
135.490589,34.66141897,大阪市立塩草立葉小学校,おおさかしりつしおくさたてばしょうがっこう,浪速区塩草1-4-31,浪速区,06-6561-3095,,,http://swa.city-osaka.ed.jp/swas/index.php?id=e61130803,小学校,2591,16107,117,183
135.4655941,34.71024697,大阪市立柏里小学校,おおさかしりつかしわざとしょうがっこう,西淀川区柏里2丁目13番33号,西淀川区,06-6474-5225,,柏里連合全域,http://swa.city-osaka.ed.jp/swas/index.php?id=e631360,小学校,3678,16301,255,311
135.4609392,34.71109692,大阪市立野里小学校,おおさかしりつのざとしょうがっこう,西淀川区野里2丁目21番13号,西淀川区,06-6473-0301,,野里連合(北一・北二・北三),http://swa.city-osaka.ed.jp/swas/index.php?id=e631361,小学校,3682,16302,346,319
135.4585218,34.70665617,大阪市立姫里小学校,おおさかしりつひめさとしょうがっこう,西淀川区姫里2丁目8番24号,西淀川区,06-6474-5555,,姫里連合全域,http://swa.city-osaka.ed.jp/swas/index.php?id=e631362,小学校,3680,16303,459,489
135.4554112,34.70176689,大阪市立姫島小学校,おおさかしりつひめじましょうがっこう,西淀川区姫島1丁目10番4号,西淀川区,06-6473-0121,,姫島連合(宮西第三・第四・第五・第六を除く町会),http://swa.city-osaka.ed.jp/swas/index.php?id=e631363,小学校,3679,16304,594,661
135.4418219,34.69814986,大阪市立福小学校,おおさかしりつふくしょうがっこう,西淀川区福町2丁目5番23号,西淀川区,06-6473-1471,,福連合(第六を除く町会)大野百島連合(第二・第三),http://swa.city-osaka.ed.jp/swas/index.php?id=e631364,小学校,3681,16305,162,240
135.4447999,34.70602217,大阪市立大和田小学校,おおさかしりつおおわだしょうがっこう,西淀川区大和田4丁目3番24号,西淀川区,06-6472-0121,,大和田連合(東・中一南・中一・中二・東三・東四)大野百島連合(第一・第四・第五),http://swa.city-osaka.ed.jp/swas/index.php?id=e631365,小学校,3674,16306,415,533
135.4296031,34.70448608,大阪市立川北小学校,おおさかしりつかわきたしょうがっこう,西淀川区中島1丁目11番20号,西淀川区,06-6473-0041,,川北連合全域,http://swa.city-osaka.ed.jp/swas/index.php?id=e631366,小学校,3673,16307,294,217
135.4471027,34.717125,大阪市立佃小学校,おおさかしりつつくだしょうがっこう,西淀川区佃1丁目21番12号,西淀川区,06-6474-1024,,佃連合(一丁目第一・第二・第三・二丁目第一・第三),http://swa.city-osaka.ed.jp/swas/index.php?id=e631367,小学校,3675,16308,444,543
135.4529918,34.72062492,大阪市立香簑小学校,おおさかしりつかみのしょうがっこう,西淀川区御幣島6丁目5番25号,西淀川区,06-6474-5210,,香簔連合(西一・西二・奥代・舟入・舟入中・西一中)竹島連合全域,http://swa.city-osaka.ed.jp/swas/index.php?id=e631368,小学校,3671,16309,476,435
135.4614668,34.714044,大阪市立歌島小学校,おおさかしりつうたじましょうがっこう,西淀川区歌島2丁目5番18号,西淀川区,06-6473-7021,,歌島連合全域,http://swa.city-osaka.ed.jp/swas/index.php?id=e631369,小学校,3670,16310,288,361
135.4370667,34.70428892,大阪市立出来島小学校,おおさかしりつできじましょうがっこう,西淀川区出来島2丁目2番24号,西淀川区,06-6474-8080,,出来島連合全域,http://swa.city-osaka.ed.jp/swas/index.php?id=e631370,小学校,3672,16311,281,298
135.4442171,34.71490317,大阪市立佃西小学校,おおさかしりつつくだにししょうがっこう,西淀川区佃2丁目15番30号,西淀川区,06-6472-8012,,佃連合(二丁目第二・第四・第五・第六・三丁目第一・第二・第三・第四),http://swa.city-osaka.ed.jp/swas/index.php?id=e631371,小学校,3676,16312,410,338
135.435381,34.71351383,大阪市立佃南小学校,おおさかしりつつくだみなみしょうがっこう,西淀川区佃5丁目12番12号,西淀川区,06-6478-1424,,佃連合(三丁目第五・第六、四丁目、五丁目第一・第二、六丁目、七丁目),http://swa.city-osaka.ed.jp/swas/index.php?id=e631372,小学校,3677,16313,134,194
135.4564252,34.71720586,大阪市立御幣島小学校,おおさかしりつみてじましょうがっこう,西淀川区御幣島3丁目5番5号,西淀川区,06-6475-7111,,,http://swa.city-osaka.ed.jp/swas/index.php?id=e631373,小学校,516,16314,590,633
135.476772,34.72076703,大阪市立神津小学校,おおさかしりつかみつしょうがっこう,淀川区十三元今里2-3-12,淀川区,06-6302-7121,,,http://swa.city-osaka.ed.jp/swas/index.php?id=e641390,小学校,2466,16401,423,405
135.4700219,34.72137803,大阪市立田川小学校,おおさかしりつたがわしょうがっこう,淀川区田川2-9-37,淀川区,06-6301-1510,,,http://swa.city-osaka.ed.jp/swas/index.php?id=e641391,小学校,2529,16402,389,357
135.4583359,34.72886092,大阪市立加島小学校,おおさかしりつかしましょうがっこう,淀川区加島1-60-28,淀川区,06-6309-8641,,,http://swa.city-osaka.ed.jp/swas/index.php?id=e641392,小学校,2434,16403,609,777
135.473439,34.72826694,大阪市立三津屋小学校,おおさかしりつみつやしょうがっこう,淀川区三津屋中1-4-14,淀川区,06-6301-0005,,,http://swa.city-osaka.ed.jp/swas/index.php?id=e641393,小学校,2454,16404,514,450
135.4799029,34.73278592,大阪市立新高小学校,おおさかしりつにいたかしょうがっこう,淀川区新高1-15-53,淀川区,06-6391-1359,,,http://swa.city-osaka.ed.jp/swas/index.php?id=e641394,小学校,2487,16405,694,693
135.480392,34.727886,大阪市立野中小学校,おおさかしりつのなかしょうがっこう,淀川区野中北1-11-26,淀川区,06-6391-0856,,,http://swa.city-osaka.ed.jp/swas/index.php?id=e641395,小学校,2566,16406,324,449
135.4857172,34.72340589,大阪市立十三小学校,おおさかしりつじゅうそうしょうがっこう,淀川区十三東4-3-6,淀川区,06-6301-0990,,,http://swa.city-osaka.ed.jp/swas/index.php?id=e641396,小学校,2476,16407,162,156
135.4921332,34.72662792,大阪市立木川小学校,おおさかしりつきかわしょうがっこう,淀川区木川東3-7-32,淀川区,06-6308-6311,,,http://swa.city-osaka.ed.jp/swas/index.php?id=e641397,小学校,2555,16408,417,390
135.4878779,34.73842819,大阪市立三国小学校,おおさかしりつみくにしょうがっこう,淀川区三国本町3-9-18,淀川区,06-6391-0146,,,http://swa.city-osaka.ed.jp/swas/index.php?id=e641398,小学校,2453,16409,557,556
135.496117,34.73946092,大阪市立北中島小学校,おおさかしりつきたなかじましょうがっこう,淀川区宮原5-3-4,淀川区,06-6391-2001,,,http://swa.city-osaka.ed.jp/swas/index.php?id=e641399,小学校,2442,16410,406,414
135.4942999,34.73007206,大阪市立西中島小学校,おおさかしりつにしなかじましょうがっこう,淀川区西中島7-14-25,淀川区,06-6301-2940,,,http://swa.city-osaka.ed.jp/swas/index.php?id=e641400,小学校,2519,16411,118,139
135.472161,34.71623892,大阪市立塚本小学校,おおさかしりつつかもとしょうがっこう,淀川区塚本3-5-6,淀川区,06-6303-5992,,,http://swa.city-osaka.ed.jp/swas/index.php?id=e641401,小学校,2523,16412,528,522
135.4945688,34.72345611,大阪市立木川南小学校,おおさかしりつきかわみなみしょうがっこう,淀川区木川東1-2-36,淀川区,06-6303-0007,,,http://swa.city-osaka.ed.jp/swas/index.php?id=e641402,小学校,2551,16413,162,165
135.4955753,34.74453103,大阪市立東三国小学校,おおさかしりつひがしみくにしょうがっこう,淀川区東三国6-3-24,淀川区,06-6391-0366,,,http://swa.city-osaka.ed.jp/swas/index.php?id=e641403,小学校,2543,16414,259,288
135.4914251,34.74475803,大阪市立西三国小学校,おおさかしりつにしみくにしょうがっこう,淀川区西三国1-21-28,淀川区,06-6393-4728,,,http://swa.city-osaka.ed.jp/swas/index.php?id=e641404,小学校,2511,16415,393,324
135.4999668,34.74529392,大阪市立新東三国小学校,おおさかしりつしんひがしみくにしょうがっこう,淀川区東三国3-9-10,淀川区,06-6399-4252,,,http://swa.city-osaka.ed.jp/swas/index.php?id=e641405,小学校,2538,16416,294,358
135.4857671,34.73296717,大阪市立宮原小学校,おおさかしりつみやはらしょうがっこう,淀川区三国本町1-16-44,淀川区,06-6399-4233,,,http://swa.city-osaka.ed.jp/swas/index.php?id=e641406,小学校,2446,16417,658,586
135.5185282,34.73605594,大阪市立東淡路小学校,おおさかしりつひがしあわじしょうがっこう,東淀川区東淡路3-3-32,東淀川区,06-6322-2706,,,http://swa.city-osaka.ed.jp/swas/index.php?id=e651420,小学校,1840,16501,303,381
135.5099111,34.73978608,大阪市立西淡路小学校,おおさかしりつにしあわじしょうがっこう,東淀川区西淡路3-14-11,東淀川区,06-6322-4100,,,http://swa.city-osaka.ed.jp/swas/index.php?id=e651421,小学校,71,16502,258,310
135.5230173,34.73957792,大阪市立菅原小学校,おおさかしりつすがはらしょうがっこう,東淀川区菅原6-3-25,東淀川区,06-6328-3005,,,http://swa.city-osaka.ed.jp/swas/index.php?id=e651422,小学校,1841,16503,771,826
135.5322967,34.748428,大阪市立新庄小学校,おおさかしりつしんじょうしょうがっこう,東淀川区上新庄2-20-5,東淀川区,06-6328-0164,,,http://swa.city-osaka.ed.jp/swas/index.php?id=e651423,小学校,1842,16504,261,350
135.5518862,34.75340606,大阪市立大隅東小学校,おおさかしりつおおすみひがししょうがっこう,東淀川区瑞光5-8-19,東淀川区,06-6328-0214,,,http://swa.city-osaka.ed.jp/swas/index.php?id=e651424,小学校,1843,16505,308,346
135.5440534,34.741767,大阪市立豊里小学校,おおさかしりつとよさとしょうがっこう,東淀川区豊里5-14-60,東淀川区,06-6328-0241,,,http://swa.city-osaka.ed.jp/swas/index.php?id=e651425,小学校,1844,16506,606,630
135.5072828,34.73253603,大阪市立啓発小学校,おおさかしりつけいはつしょうがっこう,東淀川区東中島4-8-38,東淀川区,06-6322-0120,,,http://swa.city-osaka.ed.jp/swas/index.php?id=j652423,小学校,1845,16507,241,193
135.5395393,34.75487811,大阪市立小松小学校,おおさかしりつこまつしょうがっこう,東淀川区小松3-18-15,東淀川区,06-6328-1936,,,http://swa.city-osaka.ed.jp/swas/index.php?id=e651427,小学校,1846,16508,735,870
135.5111939,34.742944,大阪市立淡路小学校,おおさかしりつあわじしょうがっこう,東淀川区西淡路5-5-32,東淀川区,06-6322-5000,,,http://swa.city-osaka.ed.jp/swas/index.php?id=e651428,小学校,1847,16509,204,237
135.5205561,34.74604386,大阪市立下新庄小学校,おおさかしりつしもしんじょうしょうがっこう,東淀川区下新庄5-2-9,東淀川区,06-6328-1235,,,http://swa.city-osaka.ed.jp/swas/index.php?id=e651429,小学校,1848,16510,309,349
135.543889,34.76228083,大阪市立井高野小学校,おおさかしりついたかのしょうがっこう,東淀川区井高野1-28-17,東淀川区,06-6340-0223,,,http://swa.city-osaka.ed.jp/swas/index.php?id=e651430,小学校,1849,16511,369,511
135.5483579,34.74804417,大阪市立大桐小学校,おおさかしりつだいどうしょうがっこう,東淀川区大桐4-1-15,東淀川区,06-6328-0904,,,http://swa.city-osaka.ed.jp/swas/index.php?id=e651431,小学校,1851,16512,657,511
135.5357469,34.74568292,大阪市立豊新小学校,おおさかしりつほうしんしょうがっこう,東淀川区豊新4-17-26,東淀川区,06-6327-5591,,,http://swa.city-osaka.ed.jp/swas/index.php?id=e651432,小学校,1852,16513,492,497
135.5490747,34.76525006,大阪市立東井高野小学校,おおさかしりつひがしいたかのしょうがっこう,東淀川区井高野2-8-28,東淀川区,06-6340-7647,,,http://swa.city-osaka.ed.jp/swas/index.php?id=e651433,小学校,1850,16514,380,500
135.5459189,34.75092203,大阪市立大隅西小学校,おおさかしりつおおすみにししょうがっこう,東淀川区大隅2-3-18,東淀川区,06-6328-6557,,,http://swa.city-osaka.ed.jp/swas/index.php?id=e651434,小学校,1853,16515,324,333
135.5441167,34.73944394,大阪市立豊里南小学校,おおさかしりつとよさとみなみしょうがっこう,東淀川区豊里5-12-41,東淀川区,06-6329-0880,,,http://swa.city-osaka.ed.jp/swas/index.php?id=e651435,小学校,1854,16516,329,331
135.5502753,34.74283586,大阪市立大道南小学校,おおさかしりつだいどうみなみしょうがっこう,東淀川区大道南1-23-6,東淀川区,06-6321-7588,,,http://swa.city-osaka.ed.jp/swas/index.php?id=e651436,小学校,1855,16517,431,455
135.5329919,34.66704211,大阪市立東小橋小学校,おおさかしりつひがしおばせしょうがっこう,東成区東小橋3-10-37,東成区,06-6971-3000,,,http://swa.city-osaka.ed.jp/swas/index.php?id=e661450,小学校,3471,16601,171,159
135.5406173,34.66730808,大阪市立大成小学校,おおさかしりつたいせいしょうがっこう,東成区大今里西3-2-62,東成区,06-6972-3878,,,http://swa.city-osaka.ed.jp/swas/index.php?id=e661451,小学校,3412,16602,249,321
135.537797,34.67252483,大阪市立中道小学校,おおさかしりつなかみちしょうがっこう,東成区玉津1-7-39,東成区,06-6972-4371,,,http://swa.city-osaka.ed.jp/swas/index.php?id=e661452,小学校,3329,16603,188,218
135.5375249,34.679406,大阪市立北中道小学校,おおさかしりつきたなかみちしょうがっこう,東成区中道2-9-20,東成区,06-6971-0440,,,http://swa.city-osaka.ed.jp/swas/index.php?id=e661453,小学校,3435,16604,215,217
135.5392193,34.67648908,大阪市立中本小学校,おおさかしりつなかもとしょうがっこう,東成区中本4-2-32,東成区,06-6981-0702,,,http://swa.city-osaka.ed.jp/swas/index.php?id=e661454,小学校,3452,16605,199,255
135.5456077,34.67928892,大阪市立東中本小学校,おおさかしりつひがしなかもとしょうがっこう,東成区東中本2-9-3,東成区,06-6971-0048,,,http://swa.city-osaka.ed.jp/swas/index.php?id=e661455,小学校,3478,16606,443,521
135.5448167,34.67187508,大阪市立今里小学校,おおさかしりついまざとしょうがっこう,東成区大今里1-35-29,東成区,06-6981-8800,,,http://swa.city-osaka.ed.jp/swas/index.php?id=e661456,小学校,3382,16607,197,206
135.5465671,34.66633317,大阪市立片江小学校,おおさかしりつかたえしょうがっこう,東成区大今里南2-13-2,東成区,06-6971-8989,,,http://swa.city-osaka.ed.jp/swas/index.php?id=e661457,小学校,3420,16608,511,521
135.5501473,34.66931917,大阪市立神路小学校,おおさかしりつかみじしょうがっこう,東成区大今里4-6-19,東成区,06-6981-2112,,,http://swa.city-osaka.ed.jp/swas/index.php?id=e661458,小学校,3394,16609,442,439
135.5557609,34.67238594,大阪市立深江小学校,おおさかしりつふかえしょうがっこう,東成区深江南1-4-6,東成区,06-6971-0009,,,http://swa.city-osaka.ed.jp/swas/index.php?id=e661459,小学校,3337,16610,301,324
135.5546169,34.67748308,大阪市立宝栄小学校,おおさかしりつほうえいしょうがっこう,東成区神路1-15-48,東成区,06-6971-6300,,,http://swa.city-osaka.ed.jp/swas/index.php?id=e661460,小学校,3364,16611,506,531
135.534683,34.66399397,大阪市立北鶴橋小学校,おおさかしりつきたつるはししょうがっこう,生野区鶴橋3丁目4番50号,生野区,06-6741-6706,,,http://swa.city-osaka.ed.jp/swas/index.php?id=e671480,小学校,4713,16701,110,129
135.5380719,34.65969217,大阪市立御幸森小学校,おおさかしりつみゆきもりしょうがっこう,生野区桃谷5丁目5番37号,生野区,06-6712-0444,,,http://swa.city-osaka.ed.jp/swas/index.php?id=e671481,小学校,4751,16702,110,187
135.5325143,34.65904194,大阪市立鶴橋小学校,おおさかしりつつるはししょうがっこう,生野区桃谷2丁目20番32号,生野区,06-6717-0040,,,http://swa.city-osaka.ed.jp/swas/index.php?id=e671482,小学校,4738,16703,128,177
135.533314,34.65592514,大阪市立東桃谷小学校,おおさかしりつひがしももだにしょうがっこう,生野区勝山北3丁目7番21号,生野区,06-6712-0447,,,http://swa.city-osaka.ed.jp/swas/index.php?id=e671483,小学校,4555,16704,198,236
135.5274579,34.65389417,大阪市立勝山小学校,おおさかしりつかつやましょうがっこう,生野区勝山南1丁目3番5号,生野区,06-6716-1166,,,http://swa.city-osaka.ed.jp/swas/index.php?id=e671484,小学校,4523,16705,209,205
135.5326113,34.64480597,大阪市立林寺小学校,おおさかしりつはやしでらしょうがっこう,生野区林寺2丁目14番3号,生野区,06-6716-3377,,,http://swa.city-osaka.ed.jp/swas/index.php?id=e671485,小学校,4754,16706,87,94
135.5364893,34.64827494,大阪市立生野小学校,おおさかしりついくのしょうがっこう,生野区舎利寺3丁目1番39号,生野区,06-6718-0901,,,http://swa.city-osaka.ed.jp/swas/index.php?id=e671486,小学校,4517,16707,202,223
135.544083,34.65969403,大阪市立中川小学校,おおさかしりつなかがわしょうがっこう,生野区中川3丁目4番3号,生野区,06-6753-1822,,,http://swa.city-osaka.ed.jp/swas/index.php?id=e671487,小学校,4690,16708,332,389
135.5499721,34.65950597,大阪市立東中川小学校,おおさかしりつひがしなかがわしょうがっこう,生野区新今里7丁目14番37号,生野区,06-6752-2865,,,http://swa.city-osaka.ed.jp/swas/index.php?id=e671488,小学校,4589,16709,327,319
135.5548581,34.66065606,大阪市立小路小学校,おおさかしりつしょうじしょうがっこう,生野区小路2丁目24番40号,生野区,06-6752-0061,,,http://swa.city-osaka.ed.jp/swas/index.php?id=e671489,小学校,4566,16710,255,285
135.5598437,34.65886903,大阪市立東小路小学校,おおさかしりつひがししょうじしょうがっこう,生野区小路東3丁目8番15号,生野区,06-6751-4465,,,http://swa.city-osaka.ed.jp/swas/index.php?id=e671490,小学校,4576,16711,257,255
135.5431688,34.648667,大阪市立田島小学校,おおさかしりつたじましょうがっこう,生野区田島3丁目7番38号,生野区,06-6758-1541,,,http://swa.city-osaka.ed.jp/swas/index.php?id=e671491,小学校,4728,16712,210,223
135.5390893,34.65250603,大阪市立舎利寺小学校,おおさかしりつしゃりじしょうがっこう,生野区勝山南4丁目15番25号,生野区,06-6712-1721,,,http://swa.city-osaka.ed.jp/swas/index.php?id=e671492,小学校,4533,16713,258,298
135.5376751,34.64236417,大阪市立生野南小学校,おおさかしりついくのみなみしょうがっこう,生野区林寺6丁目6番7号,生野区,06-6713-8585,,,http://swa.city-osaka.ed.jp/swas/index.php?id=e671493,小学校,4767,16714,166,212
135.5515393,34.64601689,大阪市立巽小学校,おおさかしりつたつみしょうがっこう,生野区巽中3丁目12番5号,生野区,06-6758-0025,,,http://swa.city-osaka.ed.jp/swas/index.php?id=e671494,小学校,4631,16715,462,499
135.5473863,34.65418603,大阪市立北巽小学校,おおさかしりつきたたつみしょうがっこう,生野区巽北1丁目30番29号,生野区,06-6753-0301,,,http://swa.city-osaka.ed.jp/swas/index.php?id=e671495,小学校,4670,16716,381,465
135.5287252,34.65133289,大阪市立西生野小学校,おおさかしりつにしいくのしょうがっこう,生野区生野西3丁目5番7号,生野区,06-6717-0345,,,http://swa.city-osaka.ed.jp/swas/index.php?id=e671496,小学校,4594,16717,125,164
135.5486779,34.63858083,大阪市立巽南小学校,おおさかしりつたつみみなみしょうがっこう,生野区巽南2丁目10番7号,生野区,06-6757-9174,,,http://swa.city-osaka.ed.jp/swas/index.php?id=e671497,小学校,4657,16718,375,415
135.5578562,34.649733,大阪市立巽東小学校,おおさかしりつたつみひがししょうがっこう,生野区巽東3丁目8番13号,生野区,06-6758-3261,,,http://swa.city-osaka.ed.jp/swas/index.php?id=e671498,小学校,4647,16719,414,431
135.5617187,34.72323903,大阪市立清水小学校,おおさかしりつしみずしょうがっこう,旭区清水5-1-12,旭区,06-6952-6661,,,http://swa.city-osaka.ed.jp/swas/index.php?id=e681510,小学校,1911,16801,425,433
135.551356,34.72276686,大阪市立古市小学校,おおさかしりつふるいちしょうがっこう,旭区森小路2-10-35,旭区,06-6955-1212,,,http://swa.city-osaka.ed.jp/swas/index.php?id=e681511,小学校,1899,16802,435,453
135.5459937,34.72715619,大阪市立大宮小学校,おおさかしりつおおみやしょうがっこう,旭区大宮4-9-16,旭区,06-6953-4001,,,http://swa.city-osaka.ed.jp/swas/index.php?id=e681512,小学校,1940,16803,342,399
135.5429141,34.71754403,大阪市立高殿小学校,おおさかしりつたかどのしょうがっこう,旭区高殿6-9-10,旭区,06-6951-3344,,,http://swa.city-osaka.ed.jp/swas/index.php?id=e681513,小学校,1889,16804,498,587
135.5416609,34.72282186,大阪市立大宮西小学校,おおさかしりつおおみやにししょうがっこう,旭区中宮1-8-14,旭区,06-6953-0800,,,http://swa.city-osaka.ed.jp/swas/index.php?id=e681514,小学校,897,16805,399,361
135.5370223,34.72301717,大阪市立生江小学校,おおさかしりついくえしょうがっこう,旭区生江1-10-21,旭区,06-6928-3561,,,http://swa.city-osaka.ed.jp/swas/index.php?id=e681515,小学校,1915,16806,127,171
135.5298281,34.72762794,大阪市立城北小学校,おおさかしりつしろきたしょうがっこう,旭区赤川3-13-47,旭区,06-6922-2134,,,http://swa.city-osaka.ed.jp/swas/index.php?id=e681516,小学校,1924,16807,266,271
135.5614688,34.716075,大阪市立新森小路小学校,おおさかしりつしんもりしょうじしょうがっこう,旭区新森6-3-13,旭区,06-6953-3800,,,http://swa.city-osaka.ed.jp/swas/index.php?id=e681517,小学校,1892,16808,676,749
135.5539418,34.73254414,大阪市立太子橋小学校,おおさかしりつたいしばししょうがっこう,旭区太子橋1-12-15,旭区,06-6951-0465,,,http://swa.city-osaka.ed.jp/swas/index.php?id=e681518,小学校,1929,16809,338,357
135.5393561,34.71390592,大阪市立高殿南小学校,おおさかしりつたかどのみなみしょうがっこう,旭区高殿3-10-30,旭区,06-6953-3851,,,http://swa.city-osaka.ed.jp/swas/index.php?id=e681519,小学校,1878,16810,260,299
135.5391519,34.70914703,大阪市立榎並小学校,おおさかしりつえなみしょうがっこう,城東区野江4-1-28,城東区,06-6931-7373,,,http://swa.city-osaka.ed.jp/swas/index.php?id=e691540,小学校,4369,16901,389,476
135.5504929,34.71465614,大阪市立関目小学校,おおさかしりつせきめしょうがっこう,城東区関目6-5-5,城東区,06-6931-0187,,,http://swa.city-osaka.ed.jp/swas/index.php?id=e691541,小学校,5085,16902,386,420
135.5482521,34.70159592,大阪市立鯰江小学校,おおさかしりつなまずえしょうがっこう,城東区今福西3-9-27,城東区,06-6939-0023,,,http://swa.city-osaka.ed.jp/swas/index.php?id=e691542,小学校,5108,16903,1147,873
135.5513358,34.69636694,大阪市立今福小学校,おおさかしりついまふくしょうがっこう,城東区今福南2-1-53,城東区,06-6933-3412,06-6931-9309,,http://swa.city-osaka.ed.jp/swas/index.php?id=e691543,小学校,5123,16904,176,203
135.5430252,34.69737806,大阪市立聖賢小学校,おおさかしりつせいけんしょうがっこう,城東区新喜多2-4-35,城東区,06-6932-5025,06-6932-5751,,http://swa.city-osaka.ed.jp/swas/index.php?id=e691544,小学校,5148,16905,415,418
135.5411724,34.69116942,大阪市立鴫野小学校,おおさかしりつしぎのしょうがっこう,城東区鴫野西4-11-48,城東区,06-6961-4313,,,http://swa.city-osaka.ed.jp/swas/index.php?id=e691545,小学校,5136,16906,564,666
135.543639,34.68564397,大阪市立中浜小学校,おおさかしりつなかはましょうがっこう,城東区中浜2-12-35,城東区,06-6961-0703,,,http://swa.city-osaka.ed.jp/swas/index.php?id=e691546,小学校,5191,16907,226,246
135.5481308,34.69104717,大阪市立城東小学校,おおさかしりつじょうとうしょうがっこう,城東区鴫野東3-16-41,城東区,06-6962-3081,,,http://swa.city-osaka.ed.jp/swas/index.php?id=e691547,小学校,5146,16908,410,395
135.5583581,34.68687792,大阪市立諏訪小学校,おおさかしりつすわしょうがっこう,城東区永田2丁目15-5,城東区,06-6961-5001,,,http://swa.city-osaka.ed.jp/swas/index.php?id=e691548,小学校,5068,16909,788,783
135.5435528,34.70640581,大阪市立成育小学校,おおさかしりつせいいくしょうがっこう,城東区成育1-5-19,城東区,06-6932-0061,,,http://swa.city-osaka.ed.jp/swas/index.php?id=e691549,小学校,5163,16910,776,775
135.5587752,34.71073914,大阪市立すみれ小学校,おおさかしりつすみれしょうがっこう,城東区古市2-6-38,城東区,06-6933-1210,,,http://swa.city-osaka.ed.jp/swas/index.php?id=e691550,小学校,5094,16910,750,739
135.5486563,34.68401,大阪市立東中浜小学校,おおさかしりつひがしなかはましょうがっこう,城東区東中浜5-4-5,城東区,06-6962-0087,,,http://swa.city-osaka.ed.jp/swas/index.php?id=e691551,小学校,5200,16911,547,504
135.555583,34.69463903,大阪市立放出小学校,おおさかしりつはなてんしょうがっこう,城東区放出西2丁目2-18,城東区,06-6967-2251,,,http://swa.city-osaka.ed.jp/swas/index.php?id=e691552,小学校,4360,16912,654,865
135.5534143,34.71065608,大阪市立関目東小学校,おおさかしりつせきめひがししょうがっこう,城東区関目4-12-15,城東区,06-6934-4499,06-6934-9944,,http://swa.city-osaka.ed.jp/swas/index.php?id=e691553,小学校,5082,16913,489,522
135.5373968,34.68343531,大阪市立森之宮小学校,おおさかしりつもりのみやしょうがっこう,城東区森之宮1-6-64,城東区,06-6967-7811,,,http://swa.city-osaka.ed.jp/swas/index.php?id=e691554,小学校,5155,16914,84,155
135.5546923,34.70046114,大阪市立鯰江東小学校,おおさかしりつなまずえひがししょうがっこう,城東区今福東1-3-26,城東区,06-6933-6403,06-6932-6408,,http://swa.city-osaka.ed.jp/swas/index.php?id=e691555,小学校,5114,16915,348,351
135.5683328,34.69476089,大阪市立榎本小学校,おおさかしりつえのもとしょうがっこう,鶴見区今津北1-5-35,鶴見区,06-6961-0461,,,http://swa.city-osaka.ed.jp/swas/index.php?id=e701570,小学校,4131,17001,899,814
135.5779282,34.69884189,大阪市立茨田南小学校,おおさかしりつまったみなみしょうがっこう,鶴見区諸口1-3-71,鶴見区,06-6911-2001,,,http://swa.city-osaka.ed.jp/swas/index.php?id=e701571,小学校,4133,17002,536,662
135.5856579,34.70918914,大阪市立茨田北小学校,おおさかしりつまったきたしょうがっこう,鶴見区浜3-8-66,鶴見区,06-6912-4500,,,http://swa.city-osaka.ed.jp/swas/index.php?id=e701572,小学校,4136,17003,684,730
135.5644137,34.70537783,大阪市立鶴見小学校,おおさかしりつつるみしょうがっこう,鶴見区鶴見4-14-10,鶴見区,06-6911-5281,,,http://swa.city-osaka.ed.jp/swas/index.php?id=e701573,小学校,4129,17004,455,410
135.5771641,34.69323903,大阪市立今津小学校,おおさかしりついまづしょうがっこう,鶴見区今津中4-1-48,鶴見区,06-6968-8300,,,http://swa.city-osaka.ed.jp/swas/index.php?id=e701574,小学校,4132,17005,682,780
135.5954857,34.70871908,大阪市立茨田東小学校,おおさかしりつまったひがししょうがっこう,鶴見区茨田大宮3-7-61,鶴見区,06-6912-0011,,,http://swa.city-osaka.ed.jp/swas/index.php?id=e701575,小学校,4135,17006,317,387
135.5731642,34.70737803,大阪市立茨田西小学校,おおさかしりつまったにししょうがっこう,鶴見区横堤5-13-61,鶴見区,06-6911-3874,,,http://swa.city-osaka.ed.jp/swas/index.php?id=e701576,小学校,4137,17007,614,615
135.570067,34.70148881,大阪市立横堤小学校,おおさかしりつよこづつみしょうがっこう,鶴見区横堤1-11-83,鶴見区,06-6912-4513,,,http://swa.city-osaka.ed.jp/swas/index.php?id=e701577,小学校,4138,17008,685,855
135.5640249,34.71046111,大阪市立みどり小学校,おおさかしりつみどりしょうがっこう,鶴見区緑2-4-45,鶴見区,06-6912-7908,,,http://swa.city-osaka.ed.jp/swas/index.php?id=e701578,小学校,4128,17009,399,393
135.5656082,34.69912808,大阪市立鶴見南小学校,おおさかしりつつるみみなみしょうがっこう,鶴見区鶴見2-17-22,鶴見区,06-6912-7946,,,http://swa.city-osaka.ed.jp/swas/index.php?id=e701579,小学校,4130,17010,960,668
135.5903862,34.70285289,大阪市立茨田小学校,おおさかしりつまったしょうがっこう,鶴見区安田2-1-8,鶴見区,06-6915-9731,,,http://swa.city-osaka.ed.jp/swas/index.php?id=e701580,小学校,4134,17011,349,435
135.5840713,34.71605764,大阪市立焼野小学校,おおさかしりつやけのしょうがっこう,鶴見区焼野１－３－４４,鶴見区,06-6912-6155,,,http://swa.city-osaka.ed.jp/swas/index.php?id=e701581,小学校,8454,17012,344,268
135.5251921,34.64382194,大阪市立高松小学校,おおさかしりつたかまつしょうがっこう,阿倍野区天王寺町北3-17-19,阿倍野区,06-6713-2381,,,http://swa.city-osaka.ed.jp/swas/index.php?id=e711600,小学校,1266,17101,379,372
135.5171362,34.64137789,大阪市立常盤小学校,おおさかしりつときわしょうがっこう,阿倍野区松崎町3-11-12,阿倍野区,06-6623-0424,06-6623-0425,,http://swa.city-osaka.ed.jp/swas/index.php?id=e711601,小学校,1220,17102,811,762
135.5177689,34.64154381,大阪市立常盤小学校分校,ときわしょうがっこうぶんこう,阿倍野区松崎町３丁目２番９号,阿倍野区,06-6621-7902,,,http://swa.city-osaka.ed.jp/swas/index.php?id=e711601,小学校,19434,17103,375,389
135.5075921,34.64280317,大阪市立金塚小学校,おおさかしりつかなづかしょうがっこう,阿倍野区旭町3-4-46,阿倍野区,06-6649-0400,,,http://swa.city-osaka.ed.jp/swas/index.php?id=e711602,小学校,1718,17104,231,251
135.5085252,34.63696111,大阪市立丸山小学校,おおさかしりつまるやましょうがっこう,阿倍野区丸山通1-4-43,阿倍野区,06-6661-6731,,,http://swa.city-osaka.ed.jp/swas/index.php?id=e711603,小学校,334,17105,490,498
135.5043191,34.63218597,大阪市立晴明丘小学校,おおさかしりつせいめいがおかしょうがっこう,阿倍野区晴明通10-34,阿倍野区,06-6661-8526,,,http://swa.city-osaka.ed.jp/swas/index.php?id=e711604,小学校,1232,17106,665,780
135.5129968,34.63226692,大阪市立阿倍野小学校,おおさかしりつあべのしょうがっこう,阿倍野区阪南町2-17-21,阿倍野区,06-6622-0526,,,http://swa.city-osaka.ed.jp/swas/index.php?id=e711605,小学校,359,17107,372,352
135.5122752,34.62460011,大阪市立阪南小学校,おおさかしりつはんなんしょうがっこう,阿倍野区阪南町5-7-40,阿倍野区,06-6621-2351,,,http://swa.city-osaka.ed.jp/swas/index.php?id=e711606,小学校,4945,17108,688,748
135.5173471,34.62274686,大阪市立長池小学校,おおさかしりつながいけしょうがっこう,阿倍野区長池町20-26,阿倍野区,06-6622-6445,,,http://swa.city-osaka.ed.jp/swas/index.php?id=e711607,小学校,1245,17109,352,330
135.5163581,34.63571089,大阪市立苗代小学校,おおさかしりつなわしろしょうがっこう,阿倍野区阪南町1-26-30,阿倍野区,06-6622-5403,,,http://swa.city-osaka.ed.jp/swas/index.php?id=e711608,小学校,348,17110,409,413
135.4966331,34.62410003,大阪市立晴明丘南小学校,おおさかしりつせいめいがおかみなみしょうがっこう,阿倍野区帝塚山1-23-8,阿倍野区,06-6661-6543,,,http://swa.city-osaka.ed.jp/swas/index.php?id=e711609,小学校,1247,17111,323,358
135.4902939,34.61830283,大阪市立粉浜小学校,おおさかしりつこはましょうがっこう,住之江区粉浜2-6-6,住之江区,06-6672－0001,,,http://swa.city-osaka.ed.jp/swas/index.php?id=e721630,小学校,4967,17201,381,422
135.4882222,34.60436417,大阪市立安立小学校,おおさかしりつあんりゅうしょうがっこう,住之江区住之江1-4-29,住之江区,06-6672－0551,,,http://swa.city-osaka.ed.jp/swas/index.php?id=e721631,小学校,4971,17202,575,610
135.4775279,34.60255594,大阪市立敷津浦小学校,おおさかしりつしきつうらしょうがっこう,住之江区北島2-9-22,住之江区,06-6681－0010,,,http://swa.city-osaka.ed.jp/swas/index.php?id=e721632,小学校,4972,17203,453,479
135.4795222,34.62254394,大阪市立加賀屋小学校,おおさかしりつかがやしょうがっこう,住之江区北加賀屋2-5-26,住之江区,06-6681－0031,,,http://swa.city-osaka.ed.jp/swas/index.php?id=e721633,小学校,5030,17204,358,357
135.4780831,34.61510283,大阪市立住吉川小学校,おおさかしりつすみよしがわしょうがっこう,住之江区西加賀屋4-1-4,住之江区,06-6681－1571,,,http://swa.city-osaka.ed.jp/swas/index.php?id=e721634,小学校,5033,17205,494,506
135.4905809,34.62312794,大阪市立北粉浜小学校,おおさかしりつきたこはましょうがっこう,住之江区粉浜1-5-48,住之江区,06-6678－6851,,,http://swa.city-osaka.ed.jp/swas/index.php?id=e721635,小学校,4968,17206,227,218
135.479219,34.60993311,大阪市立住之江小学校,おおさかしりつすみのえしょうがっこう,住之江区御崎4-6-43,住之江区,06-6681－3000,,,http://swa.city-osaka.ed.jp/swas/index.php?id=e721636,小学校,5034,17207,337,467
135.4559421,34.60904403,大阪市立平林小学校,おおさかしりつひらばやししょうがっこう,住之江区平林南2-6-48,住之江区,06-6685－8085,,,http://swa.city-osaka.ed.jp/swas/index.php?id=e721637,小学校,5038,17208,243,313
135.4842748,34.62016911,大阪市立加賀屋東小学校,おおさかしりつかがやひがししょうがっこう,住之江区東加賀屋1-6-25,住之江区,06-6681－5000,,,http://swa.city-osaka.ed.jp/swas/index.php?id=e721638,小学校,5031,17209,423,532
135.4633862,34.60576714,大阪市立新北島小学校,おおさかしりつしんきたじましょうがっこう,住之江区新北島6-2-56,住之江区,06-6683－3011,,,http://swa.city-osaka.ed.jp/swas/index.php?id=e721639,小学校,5039,17210,704,784
135.4233831,34.63384683,大阪市立南港光小学校,おおさかしりつなんこうひかりしょうがっこう,住之江区南港中4-4-22,住之江区,06-6613－0600,,,http://swa.city-osaka.ed.jp/swas/index.php?id=e721640,小学校,5041,17211,242,236
135.4275219,34.62765597,大阪市立南港緑小学校,おおさかしりつなんこうみどりしょうがっこう,住之江区南港中2-7-18,住之江区,06-6613－0700,,,http://swa.city-osaka.ed.jp/swas/index.php?id=e721641,小学校,5044,17212,132,179
135.4208357,34.63541894,大阪市立南港桜小学校,おおさかしりつなんこうさくらしょうがっこう,住之江区南港中5-2-48,住之江区,06-6613－0160,,,http://swa.city-osaka.ed.jp/swas/index.php?id=e721642,小学校,5042,17213,470,333
135.4260033,34.62692194,大阪市立南港渚小学校,おおさかしりつなんこうなぎさしょうがっこう,住之江区南港中3-7-13,住之江区,06-6614－0020,,,http://swa.city-osaka.ed.jp/swas/index.php?id=e721643,小学校,5045,17214,162,173
135.4804082,34.60791394,大阪市立清江小学校,おおさかしりつきよえしょうがっこう,住之江区御崎5-7-18,住之江区,06-6686－3050,,,http://swa.city-osaka.ed.jp/swas/index.php?id=e721644,小学校,5035,17215,289,253
135.4945223,34.61963094,大阪市立東粉浜小学校,おおさかしりつひがしこはましょうがっこう,住吉区東粉浜2丁目3番26号,住吉区,06-6672-0313,,,http://swa.city-osaka.ed.jp/swas/index.php?id=e731660,小学校,520,17301,308,369
135.4962753,34.61796092,大阪市立住吉小学校,おおさかしりつすみよししょうがっこう,住吉区帝塚山西4丁目1番35号,住吉区,06-6672-6001,,,http://swa.city-osaka.ed.jp/swas/index.php?id=e731661,小学校,521,17302,448,452
135.5139171,34.60871097,大阪市立長居小学校,おおさかしりつながいしょうがっこう,住吉区長居東3丁目3番40号,住吉区,06-6698-8787,,,http://swa.city-osaka.ed.jp/swas/index.php?id=e731662,小学校,523,17303,715,695
135.508183,34.59693289,大阪市立依羅小学校,おおさかしりつよさみしょうがっこう,住吉区我孫子4丁目11番48号,住吉区,06-6691-0771,,,http://swa.city-osaka.ed.jp/swas/index.php?id=e731663,小学校,524,17304,563,601
135.4952782,34.60802483,大阪市立墨江小学校,おおさかしりつすみえしょうがっこう,住吉区墨江2丁目3番46号,住吉区,06-6678-7601,,,http://swa.city-osaka.ed.jp/swas/index.php?id=e731664,小学校,517,17305,565,660
135.495,34.59759211,大阪市立遠里小野小学校,おおさかしりつおりおのしょうがっこう,住吉区遠里小野6丁目6番27号,住吉区,06-6692-5671,,,http://swa.city-osaka.ed.jp/swas/index.php?id=e731665,小学校,519,17306,198,227
135.4924168,34.60196108,大阪市立清水丘小学校,おおさかしりつしみずがおかしょうがっこう,住吉区清水丘2丁目9番41号,住吉区,06-6673-1101,,,http://swa.city-osaka.ed.jp/swas/index.php?id=e731666,小学校,518,17307,443,482
135.502853,34.60493092,大阪市立南住吉小学校,おおさかしりつみなみすみよししょうがっこう,住吉区南住吉3丁目5番1号,住吉区,06-6693-3941,,,http://swa.city-osaka.ed.jp/swas/index.php?id=e731667,小学校,525,17308,768,827
135.5074971,34.61568281,大阪市立大領小学校,おおさかしりつだいりょうしょうがっこう,住吉区大領3丁目3番5号,住吉区,06-6694-1100,,,http://swa.city-osaka.ed.jp/swas/index.php?id=e731668,小学校,522,17309,547,579
135.5161782,34.60195,大阪市立苅田小学校,おおさかしりつかりたしょうがっこう,住吉区苅田3丁目5番34号,住吉区,06-6699-2901,,,http://swa.city-osaka.ed.jp/swas/index.php?id=e731669,小学校,526,17310,579,635
135.5001359,34.59654392,大阪市立山之内小学校,おおさかしりつやまのうちしょうがっこう,住吉区山之内2丁目17番39号,住吉区,06-6693-0001,,,http://swa.city-osaka.ed.jp/swas/index.php?id=e731670,小学校,538,17311,620,682
135.5138059,34.59457211,大阪市立苅田南小学校,おおさかしりつかりたみなみしょうがっこう,住吉区苅田10丁目1番35号,住吉区,06-6607-0511,,,http://swa.city-osaka.ed.jp/swas/index.php?id=e731671,小学校,536,17312,284,348
135.5207441,34.60384214,大阪市立苅田北小学校,おおさかしりつかりたきたしょうがっこう,住吉区苅田1丁目11番39号,住吉区,06-6697-2224,,,http://swa.city-osaka.ed.jp/swas/index.php?id=e731672,小学校,537,17313,453,427
135.5082651,34.60578269,大阪市立大空小学校,おおさかしりつおおぞらしょうがっこう,住吉区我孫子西1丁目6番12号,住吉区,06-6606-7181,,,http://swa.city-osaka.ed.jp/swas/index.php?id=e731673,小学校,559,17314,261,217
135.5308468,34.63569389,大阪市立桑津小学校,おおさかしりつくわづしょうがっこう,東住吉区桑津5-13-13,東住吉区,06-6713-0922,,,http://swa.city-osaka.ed.jp/swas/index.php?id=e741690,小学校,3058,17401,759,728
135.5246969,34.63300606,大阪市立北田辺小学校,おおさかしりつきたたなべしょうがっこう,東住吉区北田辺3-11-14,東住吉区,06-6713-2324,,,http://swa.city-osaka.ed.jp/swas/index.php?id=e741691,小学校,3149,17402,434,464
135.5260221,34.62588892,大阪市立田辺小学校,おおさかしりつたなべしょうがっこう,東住吉区田辺2-3-34,東住吉区,06-6622-0401,,,http://swa.city-osaka.ed.jp/swas/index.php?id=e741692,小学校,3120,17403,420,465
135.5278581,34.62018317,大阪市立東田辺小学校,おおさかしりつひがしたなべしょうがっこう,東住吉区東田辺2-14-6,東住吉区,06-6691-5671,,,http://swa.city-osaka.ed.jp/swas/index.php?id=e741693,小学校,3132,17404,307,309
135.5219582,34.61761717,大阪市立南田辺小学校,おおさかしりつみなみたなべしょうがっこう,東住吉区南田辺4-3-4,東住吉区,06-6699-0221,,,http://swa.city-osaka.ed.jp/swas/index.php?id=e741694,小学校,3144,17405,748,748
135.5349168,34.61521114,大阪市立南百済小学校,おおさかしりつみなみくだらしょうがっこう,東住吉区湯里１-15-40,東住吉区,06-6701-0207,,,http://swa.city-osaka.ed.jp/swas/index.php?id=e741695,小学校,3135,17406,428,475
135.5376333,34.634906,大阪市立育和小学校,おおさかしりついくわしょうがっこう,東住吉区杭全4-10-12,東住吉区,06-6713-1253,,,http://swa.city-osaka.ed.jp/swas/index.php?id=e741696,小学校,3067,17407,610,709
135.5294003,34.61225611,大阪市立鷹合小学校,おおさかしりつたかあいしょうがっこう,東住吉区鷹合3-12-38,東住吉区,06-6692-0455,,,http://swa.city-osaka.ed.jp/swas/index.php?id=e741697,小学校,3099,17408,376,435
135.5354437,34.62715589,大阪市立今川小学校,おおさかしりついまがわしょうがっこう,東住吉区今川4-24-4,東住吉区,06-6702-5653,,,http://swa.city-osaka.ed.jp/swas/index.php?id=e741698,小学校,3077,17409,580,684
135.5281114,34.60323917,大阪市立矢田小学校,おおさかしりつやたしょうがっこう,東住吉区矢田3-4-27,東住吉区,06-6698-1521,,,http://swa.city-osaka.ed.jp/swas/index.php?id=e741699,小学校,3160,17410,187,206
135.5375862,34.60292194,大阪市立矢田東小学校,おおさかしりつやたひがししょうがっこう,東住吉区住道矢田2-7-43,東住吉区,06-6702-9877,,,http://swa.city-osaka.ed.jp/swas/index.php?id=e741700,小学校,3086,17411,265,315
135.5253861,34.60448097,大阪市立矢田西小学校,おおさかしりつやたにししょうがっこう,東住吉区公園南矢田2-15-43,東住吉区,06-6699-1600,,,http://swa.city-osaka.ed.jp/swas/index.php?id=e741701,小学校,3061,17412,245,285
135.5364779,34.60890283,大阪市立矢田北小学校,おおさかしりつやたきたしょうがっこう,東住吉区照ヶ丘矢田2-1-55,東住吉区,06-6705-1601,,,http://swa.city-osaka.ed.jp/swas/index.php?id=e741702,小学校,3094,17413,150,202
135.5393972,34.61049686,大阪市立湯里小学校,おおさかしりつゆざとしょうがっこう,東住吉区湯里6-8-3,東住吉区,06-6797-0900,,,http://swa.city-osaka.ed.jp/swas/index.php?id=e741703,小学校,3138,17414,231,296
135.5553829,34.61144211,大阪市立喜連小学校,おおさかしりつきれしょうがっこう,平野区喜連7-6-4,平野区,06-6709-7700～1,,,http://swa.city-osaka.ed.jp/swas/index.php?id=e751720,小学校,2273,17501,327,412
135.5477219,34.62521106,大阪市立平野西小学校,おおさかしりつひらのにししょうがっこう,平野区背戸口4-1-31,平野区,06-6702-0872,,,http://swa.city-osaka.ed.jp/swas/index.php?id=e751721,小学校,2315,17502,629,647
135.5545441,34.62722503,大阪市立平野小学校,おおさかしりつひらのしょうがっこう,平野区平野宮町1-9-29,平野区,06-6791-6626,,,http://swa.city-osaka.ed.jp/swas/index.php?id=e751722,小学校,2317,17503,680,741
135.5692781,34.60588103,大阪市立長吉小学校,おおさかしりつながよししょうがっこう,平野区長吉長原2-6-55,平野区,06-6709-2000,,,http://swa.city-osaka.ed.jp/swas/index.php?id=e751723,小学校,2296,17504,553,670
135.552911,34.602675,大阪市立瓜破小学校,おおさかしりつうりわりしょうがっこう,平野区瓜破5-3-11,平野区,06-6709-4920,,,http://swa.city-osaka.ed.jp/swas/index.php?id=e751724,小学校,2241,17505,442,488
135.5634394,34.63076567,大阪市立加美小学校,おおさかしりつかみしょうがっこう,平野区加美正覚寺3-13-35,平野区,06-6791-7501,,,http://swa.city-osaka.ed.jp/swas/index.php?id=e751725,小学校,2254,17506,554,690
135.5702503,34.62433289,大阪市立加美南部小学校,おおさかしりつかみなんぶしょうがっこう,平野区加美南1-9-17,平野区,06-6791-2237,,,http://swa.city-osaka.ed.jp/swas/index.php?id=e751726,小学校,2259,17507,498,589
135.5580833,34.61818603,大阪市立平野南小学校,おおさかしりつひらのみなみしょうがっこう,平野区平野南2-3-8,平野区,06-6709-5500,,,http://swa.city-osaka.ed.jp/swas/index.php?id=e751727,小学校,2339,17508,521,630
135.5762499,34.60829692,大阪市立長吉東小学校,おおさかしりつながよしひがししょうがっこう,平野区長吉出戸8-13-41,平野区,06-6709-0990・9446,,,http://swa.city-osaka.ed.jp/swas/index.php?id=e751728,小学校,2291,17509,244,253
135.5448389,34.61254186,大阪市立喜連西小学校,おおさかしりつきれにししょうがっこう,平野区喜連西3-17-61,平野区,06-6702-1056,,,http://swa.city-osaka.ed.jp/swas/index.php?id=e751729,小学校,2276,17510,421,473
135.5780279,34.60482517,大阪市立長吉南小学校,おおさかしりつながよしみなみしょうがっこう,平野区長吉六反3-2-17,平野区,06-6709-1501・1583,,,http://swa.city-osaka.ed.jp/swas/index.php?id=e751730,小学校,2307,17511,378,420
135.5511532,34.60491908,大阪市立瓜破北小学校,おおさかしりつうりわりきたしょうがっこう,平野区瓜破1-8-33,平野区,06-6709-0360・0966,,,http://swa.city-osaka.ed.jp/swas/index.php?id=e751731,小学校,2236,17512,459,554
135.5773892,34.59957494,大阪市立長原小学校,おおさかしりつながはらしょうがっこう,平野区長吉長原東3-10-9,平野区,06-6708-0105,,,http://swa.city-osaka.ed.jp/swas/index.php?id=e751732,小学校,2304,17513,220,302
135.5612498,34.61365786,大阪市立喜連東小学校,おおさかしりつきれひがししょうがっこう,平野区喜連東2-2-17,平野区,06-6708-1300,,,http://swa.city-osaka.ed.jp/swas/index.php?id=e751733,小学校,2284,17514,322,465
135.5607438,34.60700303,大阪市立瓜破東小学校,おおさかしりつうりわりひがししょうがっこう,平野区瓜破東2-5-78,平野区,06-6708-0108～9,,,http://swa.city-osaka.ed.jp/swas/index.php?id=e751734,小学校,2249,17515,254,325
135.5862501,34.60674203,大阪市立長吉六反小学校,おおさかしりつながよしろくたんしょうがっこう,平野区長吉六反5-3-41,平野区,06-6707-5681,,,http://swa.city-osaka.ed.jp/swas/index.php?id=e751735,小学校,2312,17516,136,175
135.5602783,34.63651911,大阪市立加美北小学校,おおさかしりつかみきたしょうがっこう,平野区加美北7-4-10,平野区,06-6793-0576,,,http://swa.city-osaka.ed.jp/swas/index.php?id=e751736,小学校,2266,17517,567,669
135.5702307,34.61311706,大阪市立長吉出戸小学校,おおさかしりつながよしでとしょうがっこう,平野区長吉出戸3-1-43,平野区,06-6707-8500,,,http://swa.city-osaka.ed.jp/swas/index.php?id=e751737,小学校,2288,17518,517,623
135.5446442,34.6042,大阪市立瓜破西小学校,おおさかしりつうりわりにししょうがっこう,平野区瓜破西2-1-43,平野区,06-6704-0200,,,http://swa.city-osaka.ed.jp/swas/index.php?id=e751738,小学校,2247,17519,305,314
135.5503501,34.61442194,大阪市立喜連北小学校,おおさかしりつきれきたしょうがっこう,平野区喜連1-7-4,平野区,06-6790-2100,,,http://swa.city-osaka.ed.jp/swas/index.php?id=e751740,小学校,48,17520,427,483
135.5715829,34.62718583,大阪市立加美東小学校,おおさかしりつかみひがししょうがっこう,平野区加美東5-9-25,平野区,06-6793-0725,,,http://swa.city-osaka.ed.jp/swas/index.php?id=e751741,小学校,2257,17521,366,389
135.5693892,34.59685303,大阪市立川辺小学校,おおさかしりつかわなべしょうがっこう,平野区長吉川辺1-4-9,平野区,06-6790-8351,,,http://swa.city-osaka.ed.jp/swas/index.php?id=e751742,小学校,2292,17522,367,299
135.5417222,34.62426708,大阪市立新平野西小学校,おおさかしりつしんひらのにししょうがっこう,平野区背戸口1-5-22,平野区,06-6702-3661,,,http://swa.city-osaka.ed.jp/swas/index.php?id=e751743,小学校,2313,17523,453,477
,,大阪市立萩之茶屋小学校,,,西成区,,,,,小学校,,17600,0,66
,,大阪市立今宮小学校,,,西成区,,,,,小学校,,17600,0,133
135.5013472,34.63714219,大阪市立天下茶屋小学校,おおさかしりつてんがちゃやしょうがっこう,西成区聖天下1-11-35,西成区,06-6661-8741,06-6661-7198,,http://swa.city-osaka.ed.jp/swas/index.php?id=e761752,小学校,4915,17601,262,297
135.4915612,34.63387492,大阪市立岸里小学校,おおさかしりつきしのさとしょうがっこう,西成区千本中1-8-22,西成区,06-6659-2574,06-6659-2069,,http://swa.city-osaka.ed.jp/swas/index.php?id=e761753,小学校,4910,17602,417,438
135.4917748,34.62482186,大阪市立玉出小学校,おおさかしりつたまでしょうがっこう,西成区玉出中2-13-56,西成区,06-6659-2000,06-6659-2091,,http://swa.city-osaka.ed.jp/swas/index.php?id=e761754,小学校,4909,17603,315,298
135.4883859,34.631503,大阪市立千本小学校,おおさかしりつせんぼんしょうがっこう,西成区千本中2-8-8,西成区,06-6651-6454,06-6651-2644,,http://swa.city-osaka.ed.jp/swas/index.php?id=e761755,小学校,4911,17604,453,474
135.4914999,34.63907789,大阪市立橘小学校,おおさかしりつたちばなしょうがっこう,西成区橘2-1-18,西成区,06-6651-0456,06-6651-2752,,http://swa.city-osaka.ed.jp/swas/index.php?id=e761756,小学校,4906,17605,311,350
135.489003,34.64243106,大阪市立梅南津守小学校,おおさかしりつばいなんつもりしょうがっこう,西成区梅南3-2-25,西成区,06-6651-3428,06-6651-2820,,http://swa.city-osaka.ed.jp/swas/index.php?id=e76175799,小学校,4908,17606,211,167
,,大阪市立弘治小学校,,,西成区,,,,,小学校,,17606,0,116
135.488144,34.64509383,大阪市立松之宮小学校,おおさかしりつまつのみやしょうがっこう,西成区旭3-5-39,西成区,06-6568-6381,06-6568-7709,,http://swa.city-osaka.ed.jp/swas/index.php?id=e761759,小学校,4907,17607,107,126
135.4923583,34.64812789,大阪市立長橋小学校,おおさかしりつながはししょうがっこう,西成区長橋2-3-21,西成区,06-6561-4692,,,http://swa.city-osaka.ed.jp/swas/index.php?id=e761760,小学校,4903,17608,172,213
135.4831078,34.65151689,大阪市立北津守小学校,おおさかしりつきたつもりしょうがっこう,西成区北津守3-3-40,西成区,06-6568-0415,06-6568-1595,,http://swa.city-osaka.ed.jp/swas/index.php?id=e761761,小学校,4914,17609,92,125
,,大阪市立津守小学校,,,西成区,,,,,小学校,,17609,0,82
135.4853857,34.62801892,大阪市立南津守小学校,おおさかしりつみなみつもりしょうがっこう,西成区南津守6-1-14,西成区,06-6659-3000,06-6659-2087,,http://swa.city-osaka.ed.jp/swas/index.php?id=e761763,小学校,4913,17610,509,505
135.498827,34.648302,大阪市立新今宮小学校,おおさかしりつしんいまみやしょうがっこう,西成区花園北1-8-32,西成区,06-6631-2711,06-6631-0486,,http://swa.city-osaka.ed.jp/swas/index.php?id=j762751,小学校,4905,17611,280,0
135.5140809,34.809517,大阪市立弘済小学校,こうさいしょうがっこう,吹田市古江台６丁目２番２号,大阪市以外,06-6872-0575,,,http://swa.city-osaka.ed.jp/swas/index.php?id=e511020,小学校,19427,19901,23,20
135.5778689,34.86619783,大阪市立弘済小学校分校,こうさいしょうがっこうぶんこう,高槻市奈佐原９５６,大阪市以外,072-693-5790,,,http://swa.city-osaka.ed.jp/swas/index.php?id=e511020,小学校,19429,19902,1,2
135.6245615,34.56201328,大阪市立長谷川小学校,はせがわしょうがっこう,柏原市円明町３丁目１５番,大阪市以外,072-978-6527,,,http://swa.city-osaka.ed.jp/swas/index.php?id=e741719,小学校,19431,19903,7,11
135.506758,34.703231,大阪市立天満中学校,おおさかしりつてんまちゅうがっこう,北区神山町12-9,北区,06-6313-3717,,,http://swa.city-osaka.ed.jp/swas/index.php?id=j512000,中学校,304,25101,413,405
135.5207441,34.69863583,大阪市立北稜中学校,おおさかしりつほくりょうちゅうがっこう,北区天満橋1-1-58,北区,06-6351-4259,,,http://swa.city-osaka.ed.jp/swas/index.php?id=j512001,中学校,300,25102,332,252
135.4865331,34.70368592,大阪市立大淀中学校,おおさかしりつおおよどちゅうがっこう,北区大淀中2-1-11,北区,06-6458-6991,,,http://swa.city-osaka.ed.jp/swas/index.php?id=j512004,中学校,301,25103,297,302
135.5089328,34.71614994,大阪市立豊崎中学校,おおさかしりつとよさきちゅうがっこう,北区本庄東3-4-8,北区,06-6371-7452,,,http://swa.city-osaka.ed.jp/swas/index.php?id=j512005,中学校,302,25104,261,214
135.5174468,34.71343592,大阪市立新豊崎中学校,おおさかしりつしんとよさきちゅうがっこう,北区長柄東2-2-30,北区,06-6353-6632,,,http://swa.city-osaka.ed.jp/swas/index.php?id=j512006,中学校,303,25105,249,293
135.5326059,34.71268308,大阪市立高倉中学校,おおさかしりつたかくらちゅうがっこう,都島区御幸町1-1-10,都島区,06-6921-3333,,,http://swa.city-osaka.ed.jp/swas/index.php?id=j522030,中学校,2954,25201,530,526
135.5365998,34.70207483,大阪市立桜宮中学校,おおさかしりつさくらのみやちゅうがっこう,都島区東野田町5-16-10,都島区,06-6921-6934,,,http://swa.city-osaka.ed.jp/swas/index.php?id=j522031,中学校,3014,25202,317,389
135.5257722,34.70257186,大阪市立都島中学校,おおさかしりつみやこじまちゅうがっこう,都島区中野町3-9-33,都島区,06-6352-6241,,,http://swa.city-osaka.ed.jp/swas/index.php?id=j522032,中学校,2980,25203,402,353
135.519272,34.72212783,大阪市立淀川中学校,おおさかしりつよどがわちゅうがっこう,都島区毛馬町3-5-12,都島区,06-6928-0001,,,http://swa.city-osaka.ed.jp/swas/index.php?id=j522033,中学校,3038,25204,387,401
135.526353,34.71593619,大阪市立友渕中学校,おおさかしりつともぶちちゅうがっこう,都島区友渕町1-5-151,都島区,06-6928-1970,,,http://swa.city-osaka.ed.jp/swas/index.php?id=j522034,中学校,3052,25205,441,413
135.4777718,34.70087806,大阪市立八阪中学校,おおさかしりつやさかちゅうがっこう,福島区鷺洲6-1-13,福島区,06-6458-8531,,,http://swa.city-osaka.ed.jp/swas/index.php?id=j532060,中学校,46,25301,389,373
135.4819389,34.68848892,大阪市立下福島中学校,おおさかしりつしもふくしまちゅうがっこう,福島区玉川1-4-11,福島区,06-6441-6004,,,http://swa.city-osaka.ed.jp/swas/index.php?id=j532061,中学校,3538,25302,521,388
135.4685753,34.68723283,大阪市立野田中学校,おおさかしりつのだちゅうがっこう,福島区吉野5-9-4,福島区,06-6462-3291,,,http://swa.city-osaka.ed.jp/swas/index.php?id=j532062,中学校,3537,25303,332,375
135.4574109,34.67887817,大阪市立春日出中学校,おおさかしりつかすがでちゅうがっこう,此花区春日出南1-2-8,此花区,6468-7371,,,http://swa.city-osaka.ed.jp/swas/index.php?id=j542090,中学校,948,25401,328,341
135.4450222,34.68162511,大阪市立梅香中学校,おおさかしりつばいかちゅうがっこう,此花区春日出北3-11-33,此花区,6462-2171,,,http://swa.city-osaka.ed.jp/swas/index.php?id=j542091,中学校,959,25402,497,506
135.4551329,34.69009694,大阪市立此花中学校,おおさかしりつこのはなちゅうがっこう,此花区高見2-14-31,此花区,6468-7241,,,http://swa.city-osaka.ed.jp/swas/index.php?id=j542092,中学校,1136,25403,475,585
135.4618575,34.68027881,大阪市立咲くやこの花中学校,おおさかしりつさくやこのはなちゅうがっこう,此花区西九条6-1-44,此花区,06-6464-8881,06-6464-3984,,http://swa.city-osaka.ed.jp/swas/index.php?id=j542093,中学校,9261,25404,239,237
135.5180667,34.68288311,大阪市立東中学校,おおさかしりつひがしちゅうがっこう,中央区大手前4丁目1番5号,中央区,06-6941-0195,,,http://swa.city-osaka.ed.jp/swas/index.php?id=j552120,中学校,446,25501,478,412
135.508728,34.67391411,大阪市立南中学校,おおさかしりつみなみちゅうがっこう,中央区島之内1丁目10番23号,中央区,06-6271-1456,,,http://swa.city-osaka.ed.jp/swas/index.php?id=j552122,中学校,530,25502,146,149
135.5183833,34.67229692,大阪市立上町中学校,おおさかしりつうえまちちゅうがっこう,中央区上本町西3丁目2番30号,中央区,06-6762-6556,,,http://swa.city-osaka.ed.jp/swas/index.php?id=j552123,中学校,531,25503,317,266
135.478583,34.67150603,大阪市立西中学校,おおさかしりつにしちゅうがっこう,西区千代崎3-1-43,西区,06-6582-5040,,,http://swa.city-osaka.ed.jp/swas/index.php?id=j562150,中学校,2175,25601,334,380
135.4890219,34.68638892,大阪市立花乃井中学校,おおさかしりつはなのいちゅうがっこう,西区江戸堀2-8-29,西区,06-6441-0050,,,http://swa.city-osaka.ed.jp/swas/index.php?id=j562151,中学校,3397,25602,508,453
135.4894942,34.67065606,大阪市立堀江中学校,おおさかしりつほりえちゅうがっこう,西区南堀江3-5-7,西区,06-6531-7868,,,http://swa.city-osaka.ed.jp/swas/index.php?id=j562152,中学校,2176,25603,598,506
135.4616332,34.66657183,大阪市立市岡中学校,おおさかしりついちおかちゅうがっこう,港区磯路1-5-21,港区,06-6572-7231,,,http://swa.city-osaka.ed.jp/swas/index.php?id=j572180,中学校,1956,25701,458,451
135.4483828,34.65793283,大阪市立港中学校,おおさかしりつみなとちゅうがっこう,港区池島1-5-35,港区,06-6572-4461,,,http://swa.city-osaka.ed.jp/swas/index.php?id=j572181,中学校,2013,25702,291,290
135.4566192,34.66043108,大阪市立港南中学校,おおさかしりつこうなんちゅうがっこう,港区三先1-5-28,港区,06-6573-0051,,,http://swa.city-osaka.ed.jp/swas/index.php?id=j572182,中学校,1977,25703,529,565
135.4649109,34.66729403,大阪市立市岡東中学校,おおさかしりついちおかひがしちゅうがっこう,港区市岡元町3-2-18,港区,06-6582-8580,,,http://swa.city-osaka.ed.jp/swas/index.php?id=j572183,中学校,2008,25704,297,304
135.4378031,34.65268892,大阪市立築港中学校,おおさかしりつちっこうちゅうがっこう,港区築港1-2-41,港区,06-6575-3092,,,http://swa.city-osaka.ed.jp/swas/index.php?id=j572184,中学校,2028,25705,181,245
135.4775421,34.66206106,大阪市立大正東中学校,おおさかしりつたいしょうひがしちゅうがっこう,大正区三軒家東4-4-30,大正区,06-6551-0630・3401,,,http://swa.city-osaka.ed.jp/swas/index.php?id=j582210,中学校,3820,25801,570,583
135.4716893,34.64392506,大阪市立大正中央中学校,おおさかしりつたいしょうちゅうおうちゅうがっこう,大正区小林東3-23-5,大正区,06-6552-6565～7,,,http://swa.city-osaka.ed.jp/swas/index.php?id=j582211,中学校,3838,25802,283,360
135.4649581,34.63654683,大阪市立大正西中学校,おおさかしりつたいしょうにしちゅうがっこう,大正区南恩加島6-14-37,大正区,06-6551-0294・6000,,,http://swa.city-osaka.ed.jp/swas/index.php?id=j582212,中学校,3936,25803,379,422
135.4688563,34.65018303,大阪市立大正北中学校,おおさかしりつたいしょうきたちゅうがっこう,大正区北村3-1-1,大正区,06-6554-6050,,,http://swa.city-osaka.ed.jp/swas/index.php?id=j582213,中学校,3959,25804,353,379
135.5173249,34.64944406,大阪市立天王寺中学校,おおさかしりつてんのうじちゅうがっこう,天王寺区北河堀町6-20,天王寺区,06-6771-0903,,,http://swa.city-osaka.ed.jp/swas/index.php?id=j592240,中学校,4340,25901,508,512
135.5194499,34.66057517,大阪市立夕陽丘中学校,おおさかしりつゆうひがおかちゅうがっこう,天王寺区小宮町6-28,天王寺区,06-6772-3331,,,http://swa.city-osaka.ed.jp/swas/index.php?id=j592241,中学校,4267,25902,527,409
135.5237469,34.671492,大阪市立高津中学校,おおさかしりつこうづちゅうがっこう,天王寺区城南寺町1-31,天王寺区,06-6761-2487,,,http://swa.city-osaka.ed.jp/swas/index.php?id=j592242,中学校,4291,25903,374,378
135.4913032,34.66247817,大阪市立難波中学校,おおさかしりつなんばちゅうがっこう,浪速区塩草1-1-59,浪速区,06-6562-4477～9,,,http://swa.city-osaka.ed.jp/swas/index.php?id=j612300,中学校,2589,26101,191,190
135.503547,34.65884981,大阪市立日本橋中学校,おおさかしりつにっぽんばしちゅうがっこう,浪速区日本橋西1-7-6,浪速区,06-6633-3751～2,,,http://swa.city-osaka.ed.jp/swas/index.php?id=j612301,中学校,2640,26102,174,182
135.4997498,34.65355017,大阪市立木津中学校,おおさかしりつきづちゅうがっこう,浪速区戎本町1-3-46,浪速区,06-6632-5765～6,,,http://swa.city-osaka.ed.jp/swas/index.php?id=j612302,中学校,2620,26103,146,155
135.4402717,34.70576406,大阪市立淀中学校,おおさかしりつよどちゅうがっこう,西淀川区大和田6丁目13番6号,西淀川区,06-6473-0691,,大和田連合(西一・西二・西三・西中・西中二・東五・第一住宅),http://swa.city-osaka.ed.jp/swas/index.php?id=j632360,中学校,3685,26301,458,460
135.446272,34.70270811,大阪市立西淀中学校,おおさかしりつにしよどちゅうがっこう,西淀川区姫島6丁目10番5号,西淀川区,06-6473-7121,,姫島連合(宮西第三・第四・第五・第六)福連合(第六),http://swa.city-osaka.ed.jp/swas/index.php?id=j632361,中学校,3684,26302,615,569
135.4614391,34.71493306,大阪市立歌島中学校,おおさかしりつうたじまちゅうがっこう,西淀川区歌島2丁目11番9号,西淀川区,06-6471-0197,,香簔連合(歌島・宮池・歌島公園東・御幣島東・フルレ歌島),http://swa.city-osaka.ed.jp/swas/index.php?id=j632362,中学校,3683,26303,904,857
135.4458644,34.71640286,大阪市立佃中学校,おおさかしりつつくだちゅうがっこう,西淀川区佃2丁目15番93号,西淀川区,06-6471-8131,,,http://swa.city-osaka.ed.jp/swas/index.php?id=j632363,中学校,20,26304,527,470
135.4847437,34.72454403,大阪市立十三中学校,おおさかしりつじゅうそうちゅうがっこう,淀川区十三東5-1-27,淀川区,06-6301-2855,,,http://swa.city-osaka.ed.jp/swas/index.php?id=j642390,中学校,2479,26401,567,629
135.475564,34.71546692,大阪市立新北野中学校,おおさかしりつしんきたのちゅうがっこう,淀川区新北野2-13-37,淀川区,06-6303-7641,,,http://swa.city-osaka.ed.jp/swas/index.php?id=j642391,中学校,2497,26402,620,676
135.4880221,34.74071103,大阪市立三国中学校,おおさかしりつみくにちゅうがっこう,淀川区西三国2-5-24,淀川区,06-6392-0031,,,http://swa.city-osaka.ed.jp/swas/index.php?id=j642392,中学校,2512,26403,776,768
135.4629193,34.72841386,大阪市立美津島中学校,おおさかしりつみつしまちゅうがっこう,淀川区加島1-54-41,淀川区,06-6309-0181,,,http://swa.city-osaka.ed.jp/swas/index.php?id=j642393,中学校,2430,26404,572,523
135.4967059,34.74474989,大阪市立東三国中学校,おおさかしりつひがしみくにちゅうがっこう,淀川区東三国6-3-68,淀川区,06-6391-3588,,,http://swa.city-osaka.ed.jp/swas/index.php?id=j642394,中学校,2544,26405,295,337
135.4926749,34.73738103,大阪市立宮原中学校,おおさかしりつみやはらちゅうがっこう,淀川区西宮原3-3-2,淀川区,06-6394-2455,,,http://swa.city-osaka.ed.jp/swas/index.php?id=j642395,中学校,2507,26406,474,369
135.5099893,34.74330311,大阪市立淡路中学校,おおさかしりつあわじちゅうがっこう,東淀川区西淡路4-25-53,東淀川区,06-6322-4401,,,http://swa.city-osaka.ed.jp/swas/index.php?id=j652420,中学校,1856,26501,273,302
135.5120563,34.72716911,大阪市立柴島中学校,おおさかしりつくにじまちゅうがっこう,東淀川区柴島2-8-36,東淀川区,06-6322-2566,,,http://swa.city-osaka.ed.jp/swas/index.php?id=j652421,中学校,1857,26502,183,231
135.5449252,34.75261703,大阪市立瑞光中学校,おおさかしりつずいこうちゅうがっこう,東淀川区瑞光4-9-37,東淀川区,06-6328-5721,,,http://swa.city-osaka.ed.jp/swas/index.php?id=j652422,中学校,1858,26503,711,745
135.5069589,34.73219625,大阪市立中島中学校,おおさかしりつなかじまちゅうがっこう,東淀川区東中島４－８－３８,東淀川区,06-6322-0333,,,http://swa.city-osaka.ed.jp/swas/index.php?id=j652423,中学校,1859,26504,160,114
135.5375356,34.74407192,大阪市立東淀中学校,おおさかしりつひがしよどちゅうがっこう,東淀川区豊里6-25-19,東淀川区,06-6328-5650,,,http://swa.city-osaka.ed.jp/swas/index.php?id=j652424,中学校,1860,26505,607,748
135.5479691,34.764794,大阪市立井高野中学校,おおさかしりついたかのちゅうがっこう,東淀川区井高野2-8-13,東淀川区,06-6340-2500,,,http://swa.city-osaka.ed.jp/swas/index.php?id=j652425,中学校,1861,26506,499,580
135.5339783,34.739761,大阪市立新東淀中学校,おおさかしりつしんひがしよどちゅうがっこう,東淀川区豊里1-10-32,東淀川区,06-6327-6760,,,http://swa.city-osaka.ed.jp/swas/index.php?id=j652426,中学校,1862,26507,658,710
135.5488611,34.74883911,大阪市立大桐中学校,おおさかしりつだいどうちゅうがっこう,東淀川区大桐4-5-8,東淀川区,06-6326-5838,,,http://swa.city-osaka.ed.jp/swas/index.php?id=j652427,中学校,1863,26508,499,430
135.5595533,34.67760017,大阪市立東陽中学校,おおさかしりつとうようちゅうがっこう,東成区深江北2-5-7,東成区,06-6976-1001,,,http://swa.city-osaka.ed.jp/swas/index.php?id=j662450,中学校,3355,26601,399,339
135.5464613,34.67628889,大阪市立本庄中学校,おおさかしりつほんじょうちゅうがっこう,東成区東中本3-14-2,東成区,06-6976-0316,,,http://swa.city-osaka.ed.jp/swas/index.php?id=j662451,中学校,3486,26602,470,420
135.5377506,34.67107864,大阪市立玉津中学校,おおさかしりつたまつちゅうがっこう,東成区玉津1-12-36,東成区,06-6971-4438,,,http://swa.city-osaka.ed.jp/swas/index.php?id=j662452,中学校,3327,26603,398,382
135.5536642,34.67484386,大阪市立相生中学校,おおさかしりつあいおいちゅうがっこう,東成区神路2-8-16,東成区,06-6976-1941,,,http://swa.city-osaka.ed.jp/swas/index.php?id=j662453,中学校,3365,26604,411,427
135.5423313,34.65598908,大阪市立大池中学校,おおさかしりつおおいけちゅうがっこう,生野区中川6丁目3番6号,生野区,06-6752-3451,,,http://swa.city-osaka.ed.jp/swas/index.php?id=j672480,中学校,4695,26701,267,308
135.5335532,34.65504397,大阪市立勝山中学校,おおさかしりつかつやまちゅうがっこう,生野区勝山北3丁目13番44号,生野区,06-6712-0017,,,http://swa.city-osaka.ed.jp/swas/index.php?id=j672481,中学校,12,26702,205,226
135.5302061,34.65076683,大阪市立生野中学校,おおさかしりついくのちゅうがっこう,生野区生野西3丁目5番40号,生野区,06-6716-0121,,,http://swa.city-osaka.ed.jp/swas/index.php?id=j672482,中学校,4593,26703,329,421
135.5503063,34.66100592,大阪市立東生野中学校,おおさかしりつひがしいくのちゅうがっこう,生野区新今里7丁目9番25号,生野区,06-6752-2885,,,http://swa.city-osaka.ed.jp/swas/index.php?id=j672483,中学校,4591,26704,387,490
135.5431997,34.64388292,大阪市立田島中学校,おおさかしりつたじまちゅうがっこう,生野区田島5丁目23番7号,生野区,06-6758-1021,,,http://swa.city-osaka.ed.jp/swas/index.php?id=j672484,中学校,4732,26705,205,223
135.5373692,34.657178,大阪市立鶴橋中学校,おおさかしりつつるはしちゅうがっこう,生野区勝山北4丁目9番22号,生野区,06-6731-6340,,,http://swa.city-osaka.ed.jp/swas/index.php?id=j672485,中学校,4559,26706,131,167
135.5527001,34.64720819,大阪市立巽中学校,おおさかしりつたつみちゅうがっこう,生野区巽中3丁目17番20号,生野区,06-6757-0001,,,http://swa.city-osaka.ed.jp/swas/index.php?id=j672486,中学校,4634,26707,323,391
135.5579472,34.65231094,大阪市立新生野中学校,おおさかしりつしんいくのちゅうがっこう,生野区巽東3丁目3番12号,生野区,06-6757-1421,,,http://swa.city-osaka.ed.jp/swas/index.php?id=j672487,中学校,4646,26708,336,336
135.549867,34.639814,大阪市立新巽中学校,おおさかしりつしんたつみちゅうがっこう,生野区巽南4丁目2番53号,生野区,06-6793-7415,,,http://swa.city-osaka.ed.jp/swas/index.php?id=j672488,中学校,4665,26709,259,276
135.5397192,34.71848917,大阪市立旭陽中学校,おおさかしりつきょくようちゅうがっこう,旭区高殿5-9-31,旭区,06-6951-5531,,,http://swa.city-osaka.ed.jp/swas/index.php?id=j682510,中学校,1882,26801,633,652
135.5412216,34.72667814,大阪市立大宮中学校,おおさかしりつおおみやちゅうがっこう,旭区中宮4-7-11,旭区,06-6952-0435,,,http://swa.city-osaka.ed.jp/swas/index.php?id=j682511,中学校,901,26802,331,425
135.5613859,34.71826692,大阪市立旭東中学校,おおさかしりつきょくとうちゅうがっこう,旭区新森6-7-25,旭区,06-6955-0044,,,http://swa.city-osaka.ed.jp/swas/index.php?id=j682512,中学校,1893,26803,556,578
135.5499108,34.73234997,大阪市立今市中学校,おおさかしりついまいちちゅうがっこう,旭区大宮5-13-40,旭区,06-6952-0371,,,http://swa.city-osaka.ed.jp/swas/index.php?id=j682513,中学校,888,26804,434,463
135.5573469,34.69081711,大阪市立放出中学校,おおさかしりつはなてんちゅうがっこう,城東区放出西3-12-10,城東区,06-6961-5014,,,http://swa.city-osaka.ed.jp/swas/index.php?id=j692540,中学校,4362,26901,488,588
135.5451078,34.70540589,大阪市立蒲生中学校,おおさかしりつがもうちゅうがっこう,城東区中央3-9-24,城東区,06-6932-5527,,,http://swa.city-osaka.ed.jp/swas/index.php?id=j692541,中学校,5185,26902,717,755
135.5418583,34.69437794,大阪市立城陽中学校,おおさかしりつじょうようちゅうがっこう,城東区鴫野西3-3-64,城東区,06-6961-3366,,,http://swa.city-osaka.ed.jp/swas/index.php?id=j692542,中学校,5134,26903,620,728
135.5576083,34.70707489,大阪市立菫中学校,おおさかしりつすみれちゅうがっこう,城東区古市1-18-4,城東区,06-6931-0237,,,http://swa.city-osaka.ed.jp/swas/index.php?id=j692543,中学校,5090,26904,762,746
135.5558579,34.68187814,大阪市立城東中学校,おおさかしりつじょうとうちゅうがっこう,城東区永田3丁目3-58,城東区,06-6963-0811,,,http://swa.city-osaka.ed.jp/swas/index.php?id=j692544,中学校,5069,26905,608,530
135.5527189,34.70198917,大阪市立鯰江中学校,おおさかしりつなまずえちゅうがっこう,城東区今福西4-7-20,城東区,06-6933-6943,,,http://swa.city-osaka.ed.jp/swas/index.php?id=j692545,中学校,5109,26906,550,486
135.5776142,34.70376383,大阪市立茨田中学校,おおさかしりつまったちゅうがっこう,鶴見区諸口3-4-44,鶴見区,06-6911-0191,,,http://swa.city-osaka.ed.jp/swas/index.php?id=j702570,中学校,4141,27001,822,830
135.5646077,34.70868586,大阪市立緑中学校,おおさかしりつみどりちゅうがっこう,鶴見区鶴見6-6-11,鶴見区,06-6911-3688,,,http://swa.city-osaka.ed.jp/swas/index.php?id=j702571,中学校,4139,27002,620,604
135.5880753,34.71092781,大阪市立茨田北中学校,おおさかしりつまったきたちゅうがっこう,鶴見区茨田大宮1-1-31,鶴見区,06-6911-8121,,,http://swa.city-osaka.ed.jp/swas/index.php?id=j702572,中学校,4142,27003,627,627
135.5680397,34.69243653,大阪市立今津中学校,おおさかしりついまづちゅうがっこう,鶴見区今津中1-3-55,鶴見区,06-6968-9194,,,http://swa.city-osaka.ed.jp/swas/index.php?id=j702573,中学校,4140,27004,692,762
135.5694418,34.70229714,大阪市立横堤中学校,おおさかしりつよこづつみちゅうがっこう,鶴見区横堤1-11-27,鶴見区,06-6911-1361,,,http://swa.city-osaka.ed.jp/swas/index.php?id=j702574,中学校,4143,27005,414,293
135.5209422,34.62732186,大阪市立昭和中学校,おおさかしりつしょうわちゅうがっこう,阿倍野区桃ケ池町2-3-17,阿倍野区,06-6621-0051,,,http://swa.city-osaka.ed.jp/swas/index.php?id=j712600,中学校,1604,27101,190,193
135.5224082,34.64001392,大阪市立文の里中学校,おおさかしりつふみのさとちゅうがっこう,阿倍野区美章園1-5-52,阿倍野区,06-6621-0796,,,http://swa.city-osaka.ed.jp/swas/index.php?id=j712601,中学校,1606,27102,774,725
135.5065532,34.62593289,大阪市立阪南中学校,おおさかしりつはんなんちゅうがっこう,阿倍野区北畠1-16-24,阿倍野区,06-6622-0005,,,http://swa.city-osaka.ed.jp/swas/index.php?id=j712602,中学校,66,27103,806,734
135.505108,34.63508117,大阪市立松虫中学校,おおさかしりつまつむしちゅうがっこう,阿倍野区松虫通3-4-45,阿倍野区,06-6661-6681,,,http://swa.city-osaka.ed.jp/swas/index.php?id=j712603,中学校,1230,27104,334,339
135.518386,34.62957192,大阪市立阿倍野中学校,おおさかしりつあべのちゅうがっこう,阿倍野区昭和町3-2-4,阿倍野区,06-6628-0505,,,http://swa.city-osaka.ed.jp/swas/index.php?id=j712604,中学校,1212,27105,296,306
135.4878173,34.62139406,大阪市立住吉第一中学校,おおさかしりつすみよしだいいちちゅうがっこう,住之江区粉浜西1-5-11,住之江区,06-6678－0101,,,http://swa.city-osaka.ed.jp/swas/index.php?id=j722630,中学校,4969,27201,352,415
135.4767969,34.618878,大阪市立加賀屋中学校,おおさかしりつかがやちゅうがっこう,住之江区西加賀屋2-9-20,住之江区,06-6681－0131,,,http://swa.city-osaka.ed.jp/swas/index.php?id=j722632,中学校,5032,27202,385,507
135.4786746,34.60593906,大阪市立住之江中学校,おおさかしりつすみのえちゅうがっこう,住之江区御崎8-1-6,住之江区,06-6683－0001,,,http://swa.city-osaka.ed.jp/swas/index.php?id=j722633,中学校,2,27203,510,583
135.4588863,34.60717492,大阪市立新北島中学校,おおさかしりつしんきたじまちゅうがっこう,住之江区新北島8-2-46,住之江区,06-6683－0071,,,http://swa.city-osaka.ed.jp/swas/index.php?id=j722634,中学校,5040,27204,502,545
135.4232167,34.63587497,大阪市立南港北中学校,おおさかしりつなんこうきたちゅうがっこう,住之江区南港中4-3-39,住之江区,06-6613－0500,,,http://swa.city-osaka.ed.jp/swas/index.php?id=j722635,中学校,5043,27205,267,297
135.4255559,34.62869711,大阪市立南港南中学校,おおさかしりつなんこうみなみちゅうがっこう,住之江区南港中3-5-14,住之江区,06-6614－0600,,,http://swa.city-osaka.ed.jp/swas/index.php?id=j722636,中学校,5046,27206,151,226
135.4777638,34.61323311,大阪市立真住中学校,おおさかしりつますみちゅうがっこう,住之江区御崎2-2-32,住之江区,06-6686－8495,,,http://swa.city-osaka.ed.jp/swas/index.php?id=j722637,中学校,5036,27207,560,652
135.499772,34.60736383,大阪市立三稜中学校,おおさかしりつさんりょうちゅうがっこう,住吉区千躰1丁目5番22号,住吉区,06-6691-2131,,,http://swa.city-osaka.ed.jp/swas/index.php?id=j732660,中学校,549,27301,521,552
135.5113812,34.60469208,大阪市立我孫子中学校,おおさかしりつあびこちゅうがっこう,住吉区我孫子東1丁目4番32号,住吉区,06-6697-8161,,,http://swa.city-osaka.ed.jp/swas/index.php?id=j732661,中学校,97,27302,444,501
135.495258,34.61884694,大阪市立住吉中学校,おおさかしりつすみよしちゅうがっこう,住吉区帝塚山西3丁目5番6号,住吉区,06-6672-3115,,,http://swa.city-osaka.ed.jp/swas/index.php?id=j732662,中学校,547,27303,354,324
135.4968777,34.59761911,大阪市立大和川中学校,おおさかしりつやまとがわちゅうがっこう,住吉区遠里小野2丁目11番4号,住吉区,06-6694-0005,,,http://swa.city-osaka.ed.jp/swas/index.php?id=j732663,中学校,550,27304,406,452
135.5197611,34.60347503,大阪市立東我孫子中学校,おおさかしりつひがしあびこちゅうがっこう,住吉区苅田1丁目16番2号,住吉区,06-6698-0001,,,http://swa.city-osaka.ed.jp/swas/index.php?id=j732664,中学校,1574,27305,423,446
135.4944974,34.60612797,大阪市立墨江丘中学校,おおさかしりつすみえがおかちゅうがっこう,住吉区墨江4丁目15番34号,住吉区,06-6674-3612,,,http://swa.city-osaka.ed.jp/swas/index.php?id=j732665,中学校,546,27306,568,540
135.5073859,34.61348892,大阪市立大領中学校,おおさかしりつだいりょうちゅうがっこう,住吉区大領4丁目3番25号,住吉区,06-6694-3743,,,http://swa.city-osaka.ed.jp/swas/index.php?id=j732666,中学校,548,27307,295,320
135.511111,34.59321108,大阪市立我孫子南中学校,おおさかしりつあびこみなみちゅうがっこう,住吉区浅香1丁目8番55号,住吉区,06-6698-6310,,,http://swa.city-osaka.ed.jp/swas/index.php?id=j732667,中学校,415,27308,370,501
135.522642,34.61588094,大阪市立田辺中学校,おおさかしりつたなべちゅうがっこう,東住吉区南田辺4-7-24,東住吉区,06-6692-0117,,,http://swa.city-osaka.ed.jp/swas/index.php?id=j742690,中学校,3146,27401,585,547
135.5319861,34.63564697,大阪市立東住吉中学校,おおさかしりつひがしすみよしちゅうがっこう,東住吉区桑津5-17-25,東住吉区,06-6719-4488,,,http://swa.city-osaka.ed.jp/swas/index.php?id=j742691,中学校,3059,27402,538,599
135.5393668,34.62005008,大阪市立中野中学校,おおさかしりつなかのちゅうがっこう,東住吉区中野4-4-25,東住吉区,06-6702-4455,,,http://swa.city-osaka.ed.jp/swas/index.php?id=j742692,中学校,3105,27403,707,724
135.5408612,34.60184683,大阪市立矢田中学校,おおさかしりつやたちゅうがっこう,東住吉区住道矢田9-7-55,東住吉区,06-6702-5775,,,http://swa.city-osaka.ed.jp/swas/index.php?id=j742693,中学校,3090,27404,232,272
135.5353783,34.63154697,大阪市立白鷺中学校,おおさかしりつしらざぎちゅうがっこう,東住吉区今川1-2-21,東住吉区,06-6713-0500,,,http://swa.city-osaka.ed.jp/swas/index.php?id=j742694,中学校,3072,27405,690,704
135.5285278,34.60362808,大阪市立矢田南中学校,おおさかしりつやたみなみちゅうがっこう,東住吉区矢田3-4-27,東住吉区,06-6698-1521,,,http://swa.city-osaka.ed.jp/swas/index.php?id=e741699,中学校,3156,27406,127,113
135.5240441,34.60522481,大阪市立矢田西中学校,おおさかしりつやたにしちゅうがっこう,東住吉区公園南矢田2-12-47,東住吉区,06-6697-1891,,,http://swa.city-osaka.ed.jp/swas/index.php?id=j742696,中学校,3060,27407,140,160
135.5458812,34.62021903,大阪市立摂陽中学校,おおさかしりつせつようちゅうがっこう,平野区平野西3-4-7,平野区,06-6702-0324,,,http://swa.city-osaka.ed.jp/swas/index.php?id=j752720,中学校,2329,27501,514,571
135.5426109,34.623767,大阪市立平野中学校,おおさかしりつひらのちゅうがっこう,平野区背戸口1-16-26,平野区,06-6702-6721～3,,,http://swa.city-osaka.ed.jp/swas/index.php?id=j752721,中学校,49,27502,506,572
135.5755,34.60535311,大阪市立長吉中学校,おおさかしりつながよしちゅうがっこう,平野区長吉長原東1-6-15,平野区,06-6709-3000,,,http://swa.city-osaka.ed.jp/swas/index.php?id=j752722,中学校,2302,27503,354,382
135.553039,34.60673094,大阪市立瓜破中学校,おおさかしりつうりわりちゅうがっこう,平野区瓜破2-5-31,平野区,06-6709-2221,,,http://swa.city-osaka.ed.jp/swas/index.php?id=j752723,中学校,2238,27504,391,489
135.5622422,34.63073575,大阪市立加美中学校,おおさかしりつかみちゅうがっこう,平野区加美正覚寺3-13-46,平野区,06-6791-5755,,,http://swa.city-osaka.ed.jp/swas/index.php?id=j752724,中学校,2255,27505,615,631
135.5663608,34.60049183,大阪市立長吉西中学校,おおさかしりつながよしにしちゅうがっこう,平野区長吉長原西3-8-21,平野区,06-6708-0335,,,http://swa.city-osaka.ed.jp/swas/index.php?id=j752725,中学校,2300,27506,736,806
135.5481113,34.61168608,大阪市立喜連中学校,おおさかしりつきれちゅうがっこう,平野区喜連西6-2-11,平野区,06-6704-0003,,,http://swa.city-osaka.ed.jp/swas/index.php?id=j752726,中学校,2277,27507,689,767
135.5857752,34.60909211,大阪市立長吉六反中学校,おおさかしりつながよしろくたんちゅうがっこう,平野区長吉六反4-9-61,平野区,06-6707-8700,,,http://swa.city-osaka.ed.jp/swas/index.php?id=j752727,中学校,2309,27508,192,239
135.5455531,34.60241914,大阪市立瓜破西中学校,おおさかしりつうりわりにしちゅうがっこう,平野区瓜破西2-12-22,平野区,06-6705-0700,,,http://swa.city-osaka.ed.jp/swas/index.php?id=j752728,中学校,2246,27509,391,403
135.5698332,34.62363097,大阪市立加美南中学校,おおさかしりつかみみなみちゅうがっこう,平野区加美南1-10-15,平野区,06-6793-0724,,,http://swa.city-osaka.ed.jp/swas/index.php?id=j752729,中学校,2258,27510,468,451
135.5533253,34.62784706,大阪市立平野北中学校,おおさかしりつひらのきたちゅうがっこう,平野区平野宮町1-8-55,平野区,06-6793-5121,,,http://swa.city-osaka.ed.jp/swas/index.php?id=j752730,中学校,2316,27511,374,325
135.4935811,34.63879406,大阪市立天下茶屋中学校,おおさかしりつてんがちゃやちゅうがっこう,西成区橘1-8-2,西成区,06-6651-6512,06-6651-2654,,http://swa.city-osaka.ed.jp/swas/index.php?id=j762750,中学校,4916,27601,301,336
135.4983531,34.64833297,大阪市立今宮中学校,おおさかしりついまみやちゅうがっこう,西成区花園北1-8-32,西成区,06-6631-2711,06-6631-0486,,http://swa.city-osaka.ed.jp/swas/index.php?id=j762751,中学校,4917,27602,170,149
135.4904219,34.63385311,大阪市立成南中学校,おおさかしりつせいなんちゅうがっこう,西成区千本中1-17-10,西成区,06-6651-4635,,,http://swa.city-osaka.ed.jp/swas/index.php?id=j762752,中学校,4918,27603,424,456
135.486331,34.64865589,大阪市立鶴見橋中学校,おおさかしりつつるみばしちゅうがっこう,西成区長橋3-9-23,西成区,06-6562-0001,06-6562-0470,,http://swa.city-osaka.ed.jp/swas/index.php?id=j762753,中学校,4919,27604,172,206
135.487667,34.62669981,大阪市立玉出中学校,おおさかしりつたまでちゅうがっこう,西成区玉出西1-15-37,西成区,06-6659-2761,06-6659-2103,,http://swa.city-osaka.ed.jp/swas/index.php?id=j762754,中学校,4920,27605,369,340
135.4878031,34.64254708,大阪市立梅南中学校,おおさかしりつばいなんちゅうがっこう,西成区梅南3-3-17,西成区,06-6568-4321,06-6658-4067,,http://swa.city-osaka.ed.jp/swas/index.php?id=j762756,中学校,4921,27606,198,249
135.5140943,34.80952806,大阪市立弘済中学校,こうさいちゅうがっこう,吹田市古江台６丁目２番２号,大阪市以外,06-6872-0575,,,http://swa.city-osaka.ed.jp/swas/index.php?id=e511020,中学校,19428,29901,26,32
135.577848,34.86624319,大阪市立弘済中学校分校,こうさいちゅうがっこうぶんこう,高槻市奈佐原９５６,大阪市以外,072-693-5790,,,http://swa.city-osaka.ed.jp/swas/index.php?id=e511020,中学校,19430,29902,45,40
135.6245339,34.56201328,大阪市立長谷川中学校,はせがわちゅうがっこう,柏原市円明町３丁目１５番,大阪市以外,072-978-6527,,,http://swa.city-osaka.ed.jp/swas/index.php?id=j742719,中学校,19432,29903,11,20